id,name,country,city,bic,street,street2,zip,phone
bank_1,ASOCIACION DE BANCOS PRIVADOS DEL ECUADOR,Ecuador,QUITO,ABPCECE1
bank_2,ASOCIACION MUTUALISTA AMBATO,Ecuador,AMBATO,MUATECE1
bank_3,ASOCIACION MUTUALISTA DE AHORRO Y CREDITO PARA LA VIVIENDA PICHINCHA,Ecuador,QUITO,MUPIECEQ
bank_4,BANCO AMAZONAS S.A.,Ecuador,Guayaquil,BASAECEG,Av.Francisco de Orellana,1er Pasaje 10,90512,(04)6021100
bank_5,BANCO BOLIVARIANO C.A.,Ecuador,Guayaquil,BBOLECEG,Junín 200,Panamá,90313,(04)2305000
bank_6,BANCO CAPITAL S.A,Ecuador,Quito,BCAPECEQ,Av.Río Amazonas 3461,Av.Atahualpa,170135,(02)2259021
bank_7,BANCO CENTRAL DEL ECUADOR,Ecuador,GUAYAQUIL,BCENECEQ120
bank_8,BANCO COFIEC C.A.,Ecuador,AMBATO,COFBECE1AMB
bank_9,BANCO COMERCIAL DE MANABI S.A.,Ecuador,Portoviejo,CBMIECE1,Av.Reales Tamarindos,Calle Alamos,130101,(05)2440102
bank_10,BANCO COOPNACIONAL S.A.,Ecuador,Guayaquil,CPOCECE1,Capitán Nájera 4210,La 14 ava,,(04)3709820
bank_11,BANCO D-MIRO S.A.,Ecuador,Guayaquil,DMIRECE1,Coop. Américo Vespucio 2,"A, Solar 8, Vía Perimetral Km",,(04)3700500
bank_12,BANCO DE LA PRODUCCION S.A. PRODUBANCO,Ecuador,Quito,PRODECEQ,Puerta del Sol,Av.Rio Amazonas,170135,(02)2999000
bank_13,BANCO DE LOJA,Ecuador,Loja,LOJBECEL,Simon Bolivar,Vicente Rocafuerte,110108,(07)2593500
bank_14,"BANCO DE MACHALA, C.A.",Ecuador,Machala,BMACECEG,9 de Mayo,Rocafuerte,90313,(07)2930100
bank_15,BANCO DEL AUSTRO S.A.,Ecuador,Quito,AUSTECEQ,Amazonas,Sta María,170515,1800228787
bank_16,BANCO DEL AZUAY,Ecuador,CUENCA,BAAZECE1
bank_17,BANCO DEL LITORAL,Ecuador,Guayaquil,LITBECEF,Avenida 12 NE 514,Av.Circunvalación Sur,90313,(04)3730510
bank_18,BANCO DEL PACIFICO,Ecuador,Guayaquil,PACIECEG,Francisco Paula de Icaza,Pedro Carbo,90313,(04)3731500
bank_19,BANCO DELBANK S.A.,Ecuador,GUAYAQUIL,DEBNECE1
bank_20,BANCO DESARROLLO DE LOS PUEBLOS S.A.,Ecuador,Coca,CODSECEQ,Francisco de Orellana,,,(06)2882105
bank_21,BANCO GENERAL RUMINAHUI S.A.,Ecuador,Guayaquil,BGRMECEQ,Av.Luis Plaza Dañin,Av.Pedro Menéndez Gilbert,90513,(04)2000000
bank_22,BANCO GUAYAQUIL S.A.,Ecuador,Guayaquil,GUAYECEG,Panama,Victor Manuel Rendon,90313,(04)3730100
bank_23,BANCO INTERNACIONAL S.A.,Ecuador,Quito,BINTECEQ,Av.Patria E4-21,9 de Octubre,170143,(02)4009100
bank_24,BANCO PICHINCHA C.A.,Ecuador,Quito,PICHECEQ,Av.Amazonas N39-34,Pereira,170801,(02)2980980
bank_25,BANCO PROCREDIT S.A.,Ecuador,Quito,PRCBECEQ,Atahualpa y Amazonas Esq,,170135,(02) 6003820
bank_26,BANCO SOLIDARIO,Ecuador,Quito,BSGEECEQ,Av.Río Amazonas,Corea,170135,(02)3950600
bank_27,BANCO FINCA S.A.,Ecuador,Quito,FCNCECE1,Av.Rio Amazonas N39-123,José Arizaga,170135,(02)2461660
bank_28,BANCO SUDAMERICANO S.A.,Ecuador,QUITO,BKSOECE1
bank_29,"BANCO UNIVERSAL, S.A. UNIBANCO",Ecuador,QUITO,BUNIECE1
bank_30,BANRED SA,Ecuador,QUITO,BNNRECE1
bank_31,BOLSA DE VALORES DE GUAYAQUIL S.A.,Ecuador,GUAYAQUIL,XGUAECE1
bank_32,CAJA CENTRAL FINANCOOP,Ecuador,QUITO,CJCFECE1
bank_33,CASA DE VALORES MULTIVALORES B.G. S.A.,Ecuador,QUITO,CVMUECE1
bank_34,"CITIBANK, N.A.",Ecuador,Quito,CITIECE1,Av.República de El Salvador 1082,Av.Naciones Unidas,170135,(02)3939000
bank_35,COOPERATIVA DE AHORRO Y CREDITO DE LA CORP DE ORG. CAMPESINAS INDIGENAS DE QUISAPINCHA COCIQ,Ecuador,AMBATO,OAIOECE1
bank_36,COOPERATIVA AHORRO Y CREDITO AFRO ECUATORIANA DE LA PEQUENA EMPRESA LTDA CACAEPE,Ecuador,ESMERALDAS,OADFECE1
bank_37,COOPERATIVA DE AHORRO Y CREDITO PADRE JULIAN LORENTE LTDA,Ecuador,LOJA,CHRPECE1
bank_38,COOPERATIVA DE AHORRO Y CREDITO '29 DE OCTUBRE' LTDA,Ecuador,CUENCA,COOCECE1320
bank_39,COOPERATIVA DE AHORRO Y CREDITO 1 DE JULIO,Ecuador,AMBATO,CORJECE1
bank_40,COOPERATIVA DE AHORRO Y CREDITO 13 DE ABRIL,Ecuador,VENTANAS,OATBECE1
bank_41,COOPERATIVA DE AHORRO Y CREDITO 15 DE ABRIL LTDA,Ecuador,PORTOVIEJO,CHDRECE1
bank_42,COOPERATIVA DE AHORRO Y CREDITO 15 DE AGOSTO DE PILACOTO,Ecuador,LATACUNGA,CDRGECE1
bank_43,COOPERATIVA DE AHORRO Y CREDITO 15 DE MAYO LTDA,Ecuador,AMBATO,CAOYECE1
bank_44,COOPERATIVA DE AHORRO Y CREDITO 16 DE JUNIO,Ecuador,MACHALA,CHCJECE1
bank_45,COOPERATIVA DE AHORRO Y CREDITO 20 DE FEBRERO LTDA.,Ecuador,QUITO,CHOBECE1
bank_46,COOPERATIVA DE AHORRO Y CREDITO 21 DE NOVIEMBRE LTDA,Ecuador,AMBATO,CRTVECE1
bank_47,COOPERATIVA DE AHORRO Y CREDITO 23 DE ENERO,Ecuador,PUYANGO,OHREECE1
bank_48,COOPERATIVA DE AHORRO Y CREDITO 23 DE JULIO LTDA,Ecuador,CAYAMBE,CACJECE1
bank_49,COOPERATIVA DE AHORRO Y CREDITO 23 DE MAYO LTDA,Ecuador,QUITO,CHCYECE1
bank_50,COOPERATIVA DE AHORRO Y CREDITO 26 DE SEPTIEMBRE LAZARO CONDO,Ecuador,CHUNCHI,OHCEECE1
bank_51,COOPERATIVA DE AHORRO Y CREDITO 27 DE ABRIL,Ecuador,LOJA,OATAECE1
bank_52,COOPERATIVA DE AHORRO Y CREDITO 29 DE ENERO CHAGUARPAMBA,Ecuador,LOJA,OHEEECE1
bank_53,COOPERATIVA DE AHORRO Y CREDITO 4 DE OCTUBRE,Ecuador,PENIPE,CEOCECE1
bank_54,COOPERATIVA DE AHORRO Y CREDITO 4 DE OCTUBRE SAN FRANCISCO DE CHAMBO,Ecuador,CHAMBO,OAOBECE1
bank_55,COOPERATIVA DE AHORRO Y CREDITO 9 DE OCTUBRE LTDA,Ecuador,SALCEDO,CHDTECE1
bank_56,COOPERATIVA DE AHORRO Y CREDITO ABDON CALDERON LTDA,Ecuador,PORTOVIEJO,OACBECE1
bank_57,COOPERATIVA DE AHORRO Y CREDITO ACCION IMBABURAPAK LTDA.,Ecuador,OTAVALO,CPHCECE1
bank_58,COOPERATIVA DE AHORRO Y CREDITO ACCION RURAL LTDA,Ecuador,RIOBAMBA,CDAIECE1
bank_59,COOPERATIVA DE AHORRO Y CREDITO ACCION TUNGURAHUA LTDA.,Ecuador,AMBATO,OAEAECE1
bank_60,COOPERATIVA DE AHORRO Y CREDITO ACCION Y DESARROLLO LTDA,Ecuador,GUAMOTE,CCDRECE1
bank_61,COOPERATIVA DE AHORRO Y CREDITO AGRICOLA JUNIN,Ecuador,JUNIN,OACRECE1
bank_62,COOPERATIVA DE AHORRO Y CREDITO ALFONSO JARAMILLO LEON C.C.C,Ecuador,CUENCA,CFJLECE1
bank_63,COOPERATIVA DE AHORRO Y CREDITO ALIANZA DEL VALLE LTDA,Ecuador,AMAGUANA,CAEZECE1
bank_64,COOPERATIVA DE AHORRO Y CREDITO ALIANZA MINAS LTDA,Ecuador,SAN JOSE DE MINAS,CAZMECE1
bank_65,COOPERATIVA DE AHORRO Y CREDITO AMBATO LTDA,Ecuador,AMBATO,CDCAECE1
bank_66,COOPERATIVA DE AHORRO Y CREDITO ANDALUCIA LTDA,Ecuador,QUITO,CHEDECE1
bank_67,COOPERATIVA DE AHORRO Y CREDITO ANDINA LTDA,Ecuador,LATACUNGA,CEADECE1
bank_68,COOPERATIVA DE AHORRO Y CREDITO ANTORCHA LTDA.,Ecuador,ESMERALDAS,OARHECE1
bank_69,COOPERATIVA DE AHORRO Y CREDITO ARTESANOS LTDA,Ecuador,IBARRA,CDASECE1
bank_70,COOPERATIVA DE AHORRO Y CREDITO ATUNTAQUI LTDA,Ecuador,ATUNTAQUI,CATQECE1
bank_71,COOPERATIVA DE AHORRO Y CREDITO BASHALAN LTDA,Ecuador,RIOBAMBA,COOHECE1
bank_72,COOPERATIVA DE AHORRO Y CREDITO CACPE CELICA,Ecuador,CELICA,OATPECE1
bank_73,COOPERATIVA DE AHORRO Y CREDITO CACPE MANABI,Ecuador,PORTOVIEJO,OACPECE1
bank_74,COOPERATIVA DE AHORRO Y CREDITO CALCETA LTDA,Ecuador,CALCETA,OATEECE1
bank_75,COOPERATIVA DE AHORRO Y CREDITO CAMARA DE COMERCIO DE AMBATO LTDA,Ecuador,AMBATO,CMCOECE1
bank_76,COOPERATIVA DE AHORRO Y CREDITO CAMARA DE COMERCIO DE LOJA,Ecuador,LOJA,OHERECE1
bank_77,COOPERATIVA DE AHORRO Y CREDITO CAMARA DE COMERCIO DE RIOBAMBA LTDA,Ecuador,RIOBAMBA,OADBECE1
bank_78,COOPERATIVA DE AHORRO Y CREDITO CAMARA DE COMERCIO DE SANTO DOMINGO,Ecuador,SANTO DOMINGO,OARAECE1
bank_79,COOPERATIVA DE AHORRO Y CREDITO CAMARA DE COMERCIO DEL CANTON BOLIVAR LTDA,Ecuador,GUARANDA,OARCECE1
bank_80,COOPERATIVA DE AHORRO Y CREDITO CAMARA DE COMERCIO INDIGENA DE GUAMOTE LTDA,Ecuador,GUAMOTE,CCRDECE1
bank_81,COOPERATIVA DE AHORRO Y CREDITO CAMARA DE COMERCIO JOYA DE LOS SACHAS LTDA,Ecuador,JOYA DE LOS SACHAS,OHRMECE1
bank_82,COOPERATIVA DE AHORRO Y CREDITO CAMARA DE COMERCIODEL CANTON EL CARMEN LTDA,Ecuador,EL CARMEN,OAERECE1
bank_83,COOPERATIVA DE AHORRO Y CREDITO CANAR LTDA,Ecuador,GUAYAQUIL,OADCECE1
bank_84,COOPERATIVA DE AHORRO Y CREDITO CARIAMANGA LTDA,Ecuador,CALVAS,OARMECE1
bank_85,COOPERATIVA DE AHORRO Y CREDITO CASAG,Ecuador,QUITO,CHRGECE1
bank_86,COOPERATIVA DE AHORRO Y CREDITO CHIBULEO LTDA,Ecuador,AMBATO,CROHECE1
bank_87,COOPERATIVA DE AHORRO Y CREDITO CHOCO TUNGURAHUA RUNA LTDA,Ecuador,QUITO,CAIHECE1
bank_88,COOPERATIVA DE AHORRO Y CREDITO CHOLA CUENCANA LTDA.,Ecuador,CUENCA,OAEHECE1
bank_89,COOPERATIVA DE AHORRO Y CREDITO CHONE LTDA,Ecuador,CHONE,CADHECE1
bank_90,COOPERATIVA DE AHORRO Y CREDITO CIUDAD DE ZAMORA,Ecuador,ZAMORA,OHRUECE1
bank_91,COOPERATIVA DE AHORRO Y CREDITO COCA LTDA,Ecuador,QUITO Y BOLIVAR,OAOCECE1
bank_92,COOPERATIVA DE AHORRO Y CREDITO COLEGIO DE INGENIEROS CIVILES DEL AZUAY C.I.C.A.,Ecuador,CUENCA,OHCCECE1
bank_93,COOPERATIVA DE AHORRO Y CREDITO COMERCIO LTDA,Ecuador,PORTOVIEJO,CHRCECE1
bank_94,COOPERATIVA DE AHORRO Y CREDITO CONSTRUCCION COMERCIO Y PRODUCCION LTDA,Ecuador,QUITO,CHDOECE1
bank_95,COOPERATIVA DE AHORRO Y CREDITO COOPAC AUSTRO LTDA,Ecuador,CUENCA,OADPECE1
bank_96,COOPERATIVA DE AHORRO Y CREDITO COOPARTAMOS LTDA,Ecuador,RUMINAHUI,OAEPECE1
bank_97,COOPERATIVA DE AHORRO Y CREDITO COOPROGRESO LTDA.,Ecuador,QUITO,CHCRECE1
bank_98,COOPERATIVA DE AHORRO Y CREDITO CORPORACION CENTRO LTDA,Ecuador,QUITO,CHDPECE1
bank_99,COOPERATIVA DE AHORRO Y CREDITO CREA LTDA.,Ecuador,CUENCA,OAORECE1
bank_100,COOPERATIVA DE AHORRO Y CREDITO CRECER WINARI LTDA,Ecuador,AMBATO,OACCECE1
bank_101,COOPERATIVA DE AHORRO Y CREDITO CRECIENDO JUNTOS LTDA,Ecuador,QUITO,OATDECE1
bank_102,COOPERATIVA DE AHORRO Y CREDITO CREDI FACIL LTDA,Ecuador,AMBATO,OHCIECE1
bank_103,COOPERATIVA DE AHORRO Y CREDITO CREDI YA LTDA,Ecuador,AMBATO,OHECECE1
bank_104,COOPERATIVA DE AHORRO Y CREDITO CREDIAMIGO LTDA,Ecuador,LOJA,OAIDECE1
bank_105,COOPERATIVA DE AHORRO Y CREDITO CREDIL LTDA,Ecuador,SALCEDO,CHDLECE1
bank_106,COOPERATIVA DE AHORRO Y CREDITO CREDISOCIO,Ecuador,SANTO DOMINGO,OHEDECE1
bank_107,COOPERATIVA DE AHORRO Y CREDITO CREDISUR,Ecuador,QUITO,OATRECE1
bank_108,COOPERATIVA DE AHORRO Y CREDITO CRISTO REY,Ecuador,LOJA,CRIYECE1
bank_109,COOPERATIVA DE AHORRO Y CREDITO CUNA DE LA NACIONALIDAD LTDA,Ecuador,GUAYAQUIL,OAICECE1
bank_110,COOPERATIVA DE AHORRO Y CREDITO DE LA CAMARA DE COMERCIO DE GONZANAMA,Ecuador,GONZANAMA,OHRCECE1
bank_111,COOPERATIVA DE AHORRO Y CREDITO DE LA MICROEMPRESA DE CHIMBORAZO LTDA,Ecuador,RIOBAMBA,COMZECE1
bank_112,COOPERATIVA DE AHORRO Y CREDITO DE LA MICROEMPRESAFORTUNA,Ecuador,LOJA,OAIPECE1
bank_113,COOPERATIVA DE AHORRO Y CREDITO DE LA PEQUENA EMPRESA BIBLIAN LTDA,Ecuador,BIBLIAN,CPMBECE1
bank_114,COOPERATIVA DE AHORRO Y CREDITO DE LA PEQUENA EMPRESA CACPE LOJA LTDA,Ecuador,LOJA,CARQECE1
bank_115,COOPERATIVA DE AHORRO Y CREDITO DE LA PEQUENA EMPRESA CACPE MACARA,Ecuador,LOJA,CODQECE1
bank_116,COOPERATIVA DE AHORRO Y CREDITO DE LA PEQUENA EMPRESA CACPE YANTZAZA LTDA,Ecuador,YANTZAZA,CAIQECE1
bank_117,COOPERATIVA DE AHORRO Y CREDITO DE LA PEQUENA EMPRESA DE PASTAZA LTDA,Ecuador,PUYO,CACQECE1
bank_118,COOPERATIVA DE AHORRO Y CREDITO DE LA PEQUENA EMPRESA GUALAQUIZA,Ecuador,GUALAQUIZA,CPEQECE1
bank_119,COOPERATIVA DE AHORRO Y CREDITO DE LA PEQUENA Y MEDIANA EMPRESA COOPYMEC-MACARA,Ecuador,MACARA,COCQECE1
bank_120,COOPERATIVA DE AHORRO Y CREDITO DE LOS SERVIDORES PUBLICOS DEL MINISTERIO DE EDUCACION Y CULTURA,Ecuador,QUITO,OAIVECE1
bank_121,COOPERATIVA DE AHORRO Y CREDITO DEL AZUAY,Ecuador,GUALACEO,CHCZECE1
bank_122,COOPERATIVA DE AHORRO Y CREDITO DEL EMIGRANTE ECUATORIANO Y SU FAMILIA LTDA,Ecuador,GUAYAQUIL,OAREECE1
bank_123,COOPERATIVA DE AHORRO Y CREDITO DEL SINDICATO DE CHOFERES PROFESIONALES DEL AZUAY LTDA,Ecuador,CUENCA,OADTECE1
bank_124,COOPERATIVA DE AHORRO Y CREDITO DESARROLLO POPULARLTDA,Ecuador,AMBATO,OAEDECE1
bank_125,COOPERATIVA DE AHORRO Y CREDITO DORADO LTDA,Ecuador,AMBATO,CRODECE1
bank_126,COOPERATIVA DE AHORRO Y CREDITO DR CORNELIO SAENZ VERA LTDA,Ecuador,GUAYAQUIL,OHDCECE1
bank_127,COOPERATIVA DE AHORRO Y CREDITO ECONOMIA DEL SUR ECOSUR,Ecuador,SARAGURO,OADEECE1
bank_128,COOPERATIVA DE AHORRO Y CREDITO ECUAFUTURO LTDA,Ecuador,AMBATO,OAIUECE1
bank_129,COOPERATIVA DE AHORRO Y CREDITO EDUCADORES DE CHIMBORAZO LTDA,Ecuador,RIOBAMBA,CECHECE1
bank_130,COOPERATIVA DE AHORRO Y CREDITO EDUCADORES DE EL ORO LTDA,Ecuador,MACHALA,OADOECE1
bank_131,COOPERATIVA DE AHORRO Y CREDITO EDUCADORES DE PASTAZA LTDA,Ecuador,PUYO,OARUECE1
bank_132,COOPERATIVA DE AHORRO Y CREDITO EDUCADORES DE TUNGURAHUA LTDA,Ecuador,AMBATO,CETAECE1
bank_133,COOPERATIVA DE AHORRO Y CREDITO EDUCADORES DE ZAMORA CHINCHIPE LTDA,Ecuador,ZAMORA,OADDECE1
bank_134,COOPERATIVA DE AHORRO Y CREDITO EDUCADORES DEL AZUAY LTDA,Ecuador,CUENCA,OHEUECE1
bank_135,COOPERATIVA DE AHORRO Y CREDITO EDUCADORES PRIMARIOS DEL COTOPAXI,Ecuador,LATACUNGA,OACDECE1
bank_136,COOPERATIVA DE AHORRO Y CREDITO EDUCADORES TULCAN LTDA.,Ecuador,TULCAN,OARDECE1
bank_137,COOPERATIVA DE AHORRO Y CREDITO EL CAFETAL,Ecuador,BABAHOYO,OHCFECE1
bank_138,COOPERATIVA DE AHORRO Y CREDITO EL CALVARIO LTDA,Ecuador,TISALEO,OARVECE1
bank_139,COOPERATIVA DE AHORRO Y CREDITO EL COMERCIANTE LTDA,Ecuador,SARAGURO,OATOECE1
bank_140,COOPERATIVA DE AHORRO Y CREDITO EL MIGRANTE SOLIDARIO,Ecuador,BIBLIAN,CHDGECE1
bank_141,COOPERATIVA DE AHORRO Y CREDITO EL PARAISO MANGA DEL CURA,Ecuador,EL CARMEN,OHEPECE1
bank_142,COOPERATIVA DE AHORRO Y CREDITO EL SAGRARIO LTDA,Ecuador,AMBATO,CHSGECE1
bank_143,COOPERATIVA DE AHORRO Y CREDITO EL TESORO PILLARENO,Ecuador,PILLARO,OATTECE1
bank_144,COOPERATIVA DE AHORRO Y CREDITO EMPRENDEDORES COOPEMPRENDER LIMITADA,Ecuador,QUITO,OAEEECE1
bank_145,COOPERATIVA DE AHORRO Y CREDITO ERCO LTDA,Ecuador,CUENCA,CEORECE1
bank_146,COOPERATIVA DE AHORRO Y CREDITO ESCENCIA INDIGENA LTDA,Ecuador,IBARRA,OACEECE1
bank_147,COOPERATIVA DE AHORRO Y CREDITO ESFUERZO UNIDO PARA EL DESARROLLO DEL CHILCO LA ESPERANZA LTDA,Ecuador,TISALEO,CHEZECE1
bank_148,COOPERATIVA DE AHORRO Y CREDITO ESPERANZA Y PROGRESO DEL VALLE,Ecuador,RUMINAHUI,CAOZECE1
bank_149,COOPERATIVA DE AHORRO Y CREDITO FAMILIA SOLIDARIA,Ecuador,MACHALA,OHEFECE1
bank_150,COOPERATIVA DE AHORRO Y CREDITO FASAYNAN LTDA,Ecuador,CHORDELEG,CHRYECE1
bank_151,COOPERATIVA DE AHORRO Y CREDITO FERNANDO DAQUILEMA,Ecuador,RIOBAMBA,CHCFECE1
bank_152,COOPERATIVA DE AHORRO Y CREDITO FOCAP,Ecuador,LAGO AGRIO,OHRFECE1
bank_153,COOPERATIVA DE AHORRO Y CREDITO FOCLA,Ecuador,LAGO AGRIO,CHDFECE1
bank_154,COOPERATIVA DE AHORRO Y CREDITO FONDO PARA EL DESARROLLO Y LA VIDA,Ecuador,QUITO,OHDFECE1
bank_155,COOPERATIVA DE AHORRO Y CREDITO FUTURO LAMANENSE,Ecuador,LA MANA,OHETECE1
bank_156,COOPERATIVA DE AHORRO Y CREDITO FUTURO Y DESARROLLO FUNDESARROLLO,Ecuador,QUITO,CHTFECE1
bank_157,COOPERATIVA DE AHORRO Y CREDITO FUTURO Y PROGRESO DE GALAPAGOS,Ecuador,SANTA CRUZ,OATFECE1
bank_158,COOPERATIVA DE AHORRO Y CREDITO GANANSOL LTDA,Ecuador,GUALACEO,OARGECE1
bank_159,COOPERATIVA DE AHORRO Y CREDITO GONZANAMA,Ecuador,GONZANAMA,CHRZECE1
bank_160,COOPERATIVA DE AHORRO Y CREDITO GUAMOTE LTDA,Ecuador,GUAMOTE,OATMECE1
bank_161,COOPERATIVA DE AHORRO Y CREDITO GUARANDA LTDA,Ecuador,GUARANDA,CRGNECE1
bank_162,COOPERATIVA DE AHORRO Y CREDITO HERMES GAIBOR VERDESOTO,Ecuador,LATACUNGA,OADHECE1
bank_163,COOPERATIVA DE AHORRO Y CREDITO HUAICANA LTDA,Ecuador,QUITO,CRTHECE1
bank_164,COOPERATIVA DE AHORRO Y CREDITO HUAQUILLAS LTDA,Ecuador,HUAQUILLAS,CHDQECE1
bank_165,COOPERATIVA DE AHORRO Y CREDITO HUAYCO PUNGO,Ecuador,OTAVALO,CHUPECE1
bank_166,COOPERATIVA DE AHORRO Y CREDITO ILINIZA LTDA,Ecuador,LATACUNGA,CAIZECE1
bank_167,COOPERATIVA DE AHORRO Y CREDITO INDIGENA ALFA Y OMEGA LTDA,Ecuador,QUITO,OATNECE1
bank_168,COOPERATIVA DE AHORRO Y CREDITO INDIGENAS GALAPAGOS LTDA.,Ecuador,SANTA CRUZ,OHRGECE1
bank_169,COOPERATIVA DE AHORRO Y CREDITO INNOVACION ANDINA LTDA.,Ecuador,LATACUNGA,OHCVECE1
bank_170,COOPERATIVA DE AHORRO Y CREDITO INTERCULTURAL TARPUK RUNA LTDA,Ecuador,AMBATO,OADIECE1
bank_171,COOPERATIVA DE AHORRO Y CREDITO INTERCULTURAL TAWANTINSUYU LTDA,Ecuador,AMBATO,OAOTECE1
bank_172,COOPERATIVA DE AHORRO Y CREDITO INTI WASI LTDA INTICOOP,Ecuador,SARAGURO,CHTTECE1
bank_173,COOPERATIVA DE AHORRO Y CREDITO JADAN,Ecuador,GUALACEO,CCHEECE1
bank_174,COOPERATIVA DE AHORRO Y CREDITO JARDIN AZUAYO LTDA,Ecuador,PAUTE,CCJAECE1
bank_175,COOPERATIVA DE AHORRO Y CREDITO JOYOCOTO LTDA,Ecuador,GUARANDA,CATJECE1
bank_176,COOPERATIVA DE AHORRO Y CREDITO JUAN DE SALINAS,Ecuador,SANGOLQUI,CJSLECE1
bank_177,COOPERATIVA DE AHORRO Y CREDITO JUAN PIO DE MORA LTDA,Ecuador,SAN MIGUEL,CAEJECE1
bank_178,COOPERATIVA DE AHORRO Y CREDITO JUVENTUD ECUATORIANA PROGRESISTA LTDA.,Ecuador,CUENCA,CJEPECEQ
bank_179,COOPERATIVA DE AHORRO Y CREDITO JUVENTUD UNIDA LTDA,Ecuador,AMBATO,CHRJECE1
bank_180,COOPERATIVA DE AHORRO Y CREDITO KISAPINCHA LTDA,Ecuador,AMBATO,COEKECE1
bank_181,COOPERATIVA DE AHORRO Y CREDITO LA BENEFICA LTDA,Ecuador,EL CARMEN,CHEFECE1
bank_182,COOPERATIVA DE AHORRO Y CREDITO LA DOLOROSA LTDA.,Ecuador,DURAN,CHTDECE1
bank_183,COOPERATIVA DE AHORRO Y CREDITO LA FLORESTA LTDA,Ecuador,AMBATO,OAELECE1
bank_184,COOPERATIVA DE AHORRO Y CREDITO LA INMACULADA DE SAN PLACIDO LTDA,Ecuador,PORTOVIEJO,OAIIECE1
bank_185,COOPERATIVA DE AHORRO Y CREDITO LA NUEVA JERUSALEN,Ecuador,QUITO,CDNJECE1
bank_186,COOPERATIVA DE AHORRO Y CREDITO LA UNION LTDA,Ecuador,PORTOVIEJO,OATUECE1
bank_187,COOPERATIVA DE AHORRO Y CREDITO LAS LAGUNAS,Ecuador,SARAGURO,OAIGECE1
bank_188,COOPERATIVA DE AHORRO Y CREDITO LOS ANDES LATINOS LTDA,Ecuador,GUAYAQUIL,OATLECE1
bank_189,COOPERATIVA DE AHORRO Y CREDITO LOS CHASQUIS PASTOCALLE LTDA,Ecuador,LATACUNGA,CHTQECE1
bank_190,COOPERATIVA DE AHORRO Y CREDITO LOS RIOS LTDA,Ecuador,BABAHOYO,CLRSECE1
bank_191,COOPERATIVA DE AHORRO Y CREDITO LUCHA CAMPESINA,Ecuador,CUMANDA,CREHECE1
bank_192,COOPERATIVA DE AHORRO Y CREDITO LUZ DEL VALLE,Ecuador,RUMINAHUI,CATZECE1
bank_193,COOPERATIVA DE AHORRO Y CREDITO MAGISTERIO MANABITA LIMITADA,Ecuador,PORTOVIEJO,OACIECE1
bank_194,COOPERATIVA DE AHORRO Y CREDITO MANANTIAL DE ORO LTDA,Ecuador,MACHACHI,CMCNECE1
bank_195,COOPERATIVA DE AHORRO Y CREDITO MAQUITA CUSHUN LTDA,Ecuador,AMBATO,CHRQECE1
bank_196,COOPERATIVA DE AHORRO Y CREDITO MAQUITA CUSHUNCHIC LTDA,Ecuador,QUITO,CHOQECE1
bank_197,COOPERATIVA DE AHORRO Y CREDITO MARCABELI LTDA,Ecuador,MARCABELI,CHTBECE1
bank_198,COOPERATIVA DE AHORRO Y CREDITO MERCED LTDA,Ecuador,CUENCA,CSMDECE1
bank_199,COOPERATIVA DE AHORRO Y CREDITO METROPOLIS LTDA,Ecuador,QUINSALOMA,OHDMECE1
bank_200,COOPERATIVA DE AHORRO Y CREDITO MI TIERRA,Ecuador,PELILEO,CMTRECE1
bank_201,COOPERATIVA DE AHORRO Y CREDITO MICROEMPRESARIAL SUCRE,Ecuador,SUCRE,OHCMECE1
bank_202,COOPERATIVA DE AHORRO Y CREDITO MINGA LTDA,Ecuador,RIOBAMBA,CMINECE1
bank_203,COOPERATIVA DE AHORRO Y CREDITO MUJERES UNIDAS,Ecuador,IBARRA,CDMUECE1
bank_204,COOPERATIVA DE AHORRO Y CREDITO MULTICULTURAL INDIGENA LTDA,Ecuador,AMBATO,CHTMECE1
bank_205,COOPERATIVA DE AHORRO Y CREDITO MULTIEMPRESARIAL,Ecuador,CUENCA,OHRLECE1
bank_206,COOPERATIVA DE AHORRO Y CREDITO MUSHUC RUNA LTDA,Ecuador,AMBATO,CMRUECE1
bank_207,COOPERATIVA DE AHORRO Y CREDITO MUSHUK KAWSAY LTDA,Ecuador,QUITO,CAMWECE1
bank_208,COOPERATIVA DE AHORRO Y CREDITO MUSHUKWASI,Ecuador,SARAGURO,CAEWECE1
bank_209,COOPERATIVA DE AHORRO Y CREDITO NUEVA ESPERANZA LTDA,Ecuador,RIOBAMBA,CNESECE1
bank_210,COOPERATIVA DE AHORRO Y CREDITO NUEVA FUERZA ALIANZA,Ecuador,AMBATO,OACVECE1
bank_211,COOPERATIVA DE AHORRO Y CREDITO NUEVA HUANCAVILCA,Ecuador,LA LIBERTAD,CNHCECE1
bank_212,COOPERATIVA DE AHORRO Y CREDITO NUEVA VISION,Ecuador,QUITO,OAOVECE1
bank_213,COOPERATIVA DE AHORRO Y CREDITO NUKA LLAKTA LTDA,Ecuador,RIOBAMBA,CHTKECE1
bank_214,COOPERATIVA DE AHORRO Y CREDITO ONCE DE JUNIO,Ecuador,MACHALA,CHRNECE1
bank_215,COOPERATIVA DE AHORRO Y CREDITO OSCUS LTDA,Ecuador,AMBATO,CSOSECE1
bank_216,COOPERATIVA DE AHORRO Y CREDITO PABLO MUNOZ VEGA,Ecuador,TULCAN,CHCBECE1
bank_217,COOPERATIVA DE AHORRO Y CREDITO PADRE VICENTE PONCE RUBIO,Ecuador,TULCAN,OAODECE1
bank_218,COOPERATIVA DE AHORRO Y CREDITO PARA LA VIVIENDA ORDEN Y SEGURIDAD,Ecuador,QUITO,OHRVECE1
bank_219,COOPERATIVA DE AHORRO Y CREDITO PEDRO MONCAYO LTDA,Ecuador,PEDRO MONCAYO,CPMYECE1
bank_220,COOPERATIVA DE AHORRO Y CREDITO PICHINCHA LTDA.,Ecuador,QUITO,OAIHECE1
bank_221,COOPERATIVA DE AHORRO Y CREDITO PIJAL,Ecuador,OTAVALO,CHDJECE1
bank_222,COOPERATIVA DE AHORRO Y CREDITO PILAHUIN,Ecuador,SALCEDO,CAOHECE1
bank_223,COOPERATIVA DE AHORRO Y CREDITO PILAHUIN TIO LTDA,Ecuador,OTAVALO,CRIHECE1
bank_224,COOPERATIVA DE AHORRO Y CREDITO POLICIA NACIONAL LTDA,Ecuador,QUITO,CPCCECE1
bank_225,COOPERATIVA DE AHORRO Y CREDITO PREVISION AHORRO YDESAROLLO LTDA,Ecuador,QUITO,CHCVECE1
bank_226,COOPERATIVA DE AHORRO Y CREDITO PRODUCCION AHORRO INVERSION SERVICIO P.A.I.S. LTDA,Ecuador,RIOBAMBA,OARRECE1
bank_227,COOPERATIVA DE AHORRO Y CREDITO PROMOCION DE VIDA ASOCIADA LTDA PROVIDA,Ecuador,CUENCA,CPVAECE1
bank_228,COOPERATIVA DE AHORRO Y CREDITO PUCARA LTDA,Ecuador,PASTOCALLE,OHCPECE1
bank_229,COOPERATIVA DE AHORRO Y CREDITO PUELLARO LTDA,Ecuador,QUITO,CRPUECE1
bank_230,COOPERATIVA DE AHORRO Y CREDITO PUERTO FRANCISCO DE ORELLANA,Ecuador,QUITO,OARPECE1
bank_231,COOPERATIVA DE AHORRO Y CREDITO PUERTO LOPEZ LTDA,Ecuador,PUERTO LOPEZ,OACUECE1
bank_232,COOPERATIVA DE AHORRO Y CREDITO PUJILI LTDA.,Ecuador,PUJILI,CHTJECE1
bank_233,COOPERATIVA DE AHORRO Y CREDITO QUILANGA LTDA,Ecuador,QUILANGA,CHCQECE1
bank_234,COOPERATIVA DE AHORRO Y CREDITO RIOBAMBA,Ecuador,RIOBAMBA,CHDMECE1
bank_235,COOPERATIVA DE AHORRO Y CREDITO RIOCHICO,Ecuador,PORTOVIEJO,CHEHECE1
bank_236,COOPERATIVA DE AHORRO Y CREDITO SALASACA,Ecuador,SAN PEDRO DE PELILEO,OARLECE1
bank_237,COOPERATIVA DE AHORRO Y CREDITO SALATE LTDA,Ecuador,PELILEO,CSLSECE1
bank_238,COOPERATIVA DE AHORRO Y CREDITO SALINAS LIMITADA,Ecuador,GUARANDA,OATIECE1
bank_239,COOPERATIVA DE AHORRO Y CREDITO SAN ANTONIO DE TOACASO,Ecuador,LATACUNGA,OHCNECE1
bank_240,COOPERATIVA DE AHORRO Y CREDITO SAN ANTONIO LTDA,Ecuador,IBARRA,OAESECE1
bank_241,COOPERATIVA DE AHORRO Y CREDITO SAN FERNANDO LTDA,Ecuador,AMBATO,OAEFECE1
bank_242,COOPERATIVA DE AHORRO Y CREDITO SAN FRANCISCO DE ASIS LTDA.,Ecuador,QUITO,CHTNECE1
bank_243,COOPERATIVA DE AHORRO Y CREDITO SAN GABRIEL LTDA,Ecuador,MONTUFAR,CSGAECE1
bank_244,COOPERATIVA DE AHORRO Y CREDITO SAN ISIDRO LTDA,Ecuador,SUCRE,OARNECE1
bank_245,COOPERATIVA DE AHORRO Y CREDITO SAN JORGE LTDA,Ecuador,RIOBAMBA,CSJGECE1
bank_246,COOPERATIVA DE AHORRO Y CREDITO SAN JOSE LTDA,Ecuador,CHIMBO,CSJSECE1
bank_247,COOPERATIVA DE AHORRO Y CREDITO SAN JOSE S.J.,Ecuador,CUENCA,CSJOECE1
bank_248,COOPERATIVA DE AHORRO Y CREDITO SAN JUAN DE COTOGCHOA,Ecuador,RUMINAHUI,CADJECE1
bank_249,COOPERATIVA DE AHORRO Y CREDITO SAN MARCOS,Ecuador,AZOGUES,OACSECE1
bank_250,COOPERATIVA DE AHORRO Y CREDITO SAN MARTIN DE TISALEO LTDA,Ecuador,TISALEO,OAINECE1
bank_251,COOPERATIVA DE AHORRO Y CREDITO SAN MIGUEL DE LOS BANCOS LTD,Ecuador,SAN MIGUEL DE LOS BANCOS,CSMNECE1
bank_252,COOPERATIVA DE AHORRO Y CREDITO SAN MIGUEL DE PALLATANGA,Ecuador,SAN MIGUEL,OHRNECE1
bank_253,COOPERATIVA DE AHORRO Y CREDITO SAN MIGUEL DE SIGCHOS,Ecuador,SIGCHOS,OAOSECE1
bank_254,COOPERATIVA DE AHORRO Y CREDITO SAN PEDRO LTDA,Ecuador,GUARANDA,OAOAECE1
bank_255,COOPERATIVA DE AHORRO Y CREDITO SAN SANTIAGO DE MOLLETURO,Ecuador,CUENCA,OAIAECE1
bank_256,COOPERATIVA DE AHORRO Y CREDITO SANTA ANA LTDA,Ecuador,SANTA ANA,OHCTECE1
bank_257,COOPERATIVA DE AHORRO Y CREDITO SANTA ANITA LTDA,Ecuador,COTACACHI,CDSAECE1
bank_258,COOPERATIVA DE AHORRO Y CREDITO SANTA ISABEL LTDA,Ecuador,LOJA,OADSECE1
bank_259,COOPERATIVA DE AHORRO Y CREDITO SANTA MARIA DE LA MANGA DEL CURA LTDA.,Ecuador,PUERTO BAQUERIZO MORENO,OHRTECE1
bank_260,COOPERATIVA DE AHORRO Y CREDITO SANTA ROSA DE PATUTAN LTDA,Ecuador,LATACUNGA,OATSECE1
bank_261,COOPERATIVA DE AHORRO Y CREDITO SANTA ROSA LTDA,Ecuador,SANTA ROSA,CHDNECE1
bank_262,COOPERATIVA DE AHORRO Y CREDITO SAQUISILI LTDA.,Ecuador,SAQUISILI,CRCQECE1
bank_263,COOPERATIVA DE AHORRO Y CREDITO SARAGUROS,Ecuador,SARAGURO,CHOGECE1
bank_264,COOPERATIVA DE AHORRO Y CREDITO SEMILLA DEL PROGRESO LTDA,Ecuador,SARAGURO,CESGECE1
bank_265,COOPERATIVA DE AHORRO Y CREDITO SENOR DE GIRON,Ecuador,GIRON,CSOGECE1
bank_266,COOPERATIVA DE AHORRO Y CREDITO SERVIDORES MUNICIPALES DE CUENCA,Ecuador,CUENCA,OAOEECE1
bank_267,COOPERATIVA DE AHORRO Y CREDITO SIERRA CENTRO LTDA,Ecuador,LATACUNGA,OAOIECE1
bank_268,COOPERATIVA DE AHORRO Y CREDITO SIMIATUG LIMITADA,Ecuador,GUARANDA,OAITECE1
bank_269,COOPERATIVA DE AHORRO Y CREDITO SIMON BOLIVAR LTDA,Ecuador,LATACUNGA,OHCOECE1
bank_270,COOPERATIVA DE AHORRO Y CREDITO SINCHI RUNA LTDA,Ecuador,SAQUISILI,CRCHECE1
bank_271,COOPERATIVA DE AHORRO Y CREDITO SOCIO AMIGO COOPSA,Ecuador,MARCABELI,OAEOECE1
bank_272,COOPERATIVA DE AHORRO Y CREDITO SOL DE LOS ANDES LTDA CHIMBORAZO,Ecuador,RIOBAMBA,CHTOECE1
bank_273,COOPERATIVA DE AHORRO Y CREDITO SOLIDARIA LTDA,Ecuador,LOJA,OARSECE1
bank_274,COOPERATIVA DE AHORRO Y CREDITO SOLIDARIDAD Y PROGRESO ORIENTAL,Ecuador,AZOGUES,CRTDECE1
bank_275,COOPERATIVA DE AHORRO Y CREDITO SUMAC LLACTA LTDA,Ecuador,RIOBAMBA,OAEMECE1
bank_276,COOPERATIVA DE AHORRO Y CREDITO SUMAK NAN LTDA.,Ecuador,AMBATO,CRTKECE1
bank_277,COOPERATIVA DE AHORRO Y CREDITO SUMAK SAMY LTDA,Ecuador,AMBATO,CORKECE1
bank_278,COOPERATIVA DE AHORRO Y CREDITO TENA LTDA,Ecuador,TENA,CTENECE1
bank_279,COOPERATIVA DE AHORRO Y CREDITO TULCAN,Ecuador,TULCAN,CHRLECE1
bank_280,COOPERATIVA DE AHORRO Y CREDITO UNIBLOCK Y SERVICIOS LTDA,Ecuador,LATACUNGA,CHDKECE1
bank_281,COOPERATIVA DE AHORRO Y CREDITO UNION EL EJIDO,Ecuador,COTACACHI,OAEIECE1
bank_282,COOPERATIVA DE AHORRO Y CREDITO UNION QUISAPINCHA LTDA,Ecuador,AMBATO,OAOUECE1
bank_283,COOPERATIVA DE AHORRO Y CREDITO UNIOTAVALO LTDA,Ecuador,OTAVALO,CHTVECE1
bank_284,COOPERATIVA DE AHORRO Y CREDITO VALLES DEL LIRIO AICEP,Ecuador,AMBATO,OATVECE1
bank_285,COOPERATIVA DE AHORRO Y CREDITO VENCEDORES DE PICHINCHA LTDA CACVP,Ecuador,QUITO,CHDVECE1
bank_286,COOPERATIVA DE AHORRO Y CREDITO VENCEDORES DE TUNGURAHUA LTDA,Ecuador,AMBATO,OADVECE1
bank_287,COOPERATIVA DE AHORRO Y CREDITO VICENTINA MANUEL ESTEBAN GODOY ORTEGA LTDA,Ecuador,LOJA,CPGMECE1
bank_288,COOPERATIVA DE AHORRO Y CREDITO VIRGEN DEL CISNE,Ecuador,LATACUNGA,CRDVECE1
bank_289,COOPERATIVA DE AHORRO Y CREDITO WARMIKUNAPAK RIKCHARI LTDA,Ecuador,AMBATO,CADWECE1
bank_290,COOPERATIVA DE AHORRO Y CREDITO WUAMANLOMA LTDA,Ecuador,PELILEO,CACWECE1
bank_291,CORPORACION CIVIL RED DE INSTITUCIONES FINANCIERAS DE DESARROLLO-RFD,Ecuador,QUITO,RFRUECE1
bank_292,CORPORACION DE DESARROLLO DE MERCADO SECUNDARIO DE HIPOTECAS CTH S.A.,Ecuador,QUITO,CDMCECE1
bank_293,CORPORACION EN LAS HUELLAS DEL BANCO GRAMEEN LOJA,Ecuador,LOJA,COHRECE1
bank_294,CORPORACION NACIONAL DE TELECOMUNICACIONES - CNT EP,Ecuador,QUITO,CNTNECE1
bank_295,DEPOSITO CENTRALIZADO DE COMPENSACION Y LIQUIDACION DE VALORES DECEVALE SA,Ecuador,GUAYAQUIL,DCVEECE1
bank_296,DINERS CLUB DEL ECUADOR S.A.,Ecuador,QUITO,DICDECEQ
bank_297,EMPRESA ELECTRICA QUITO S.A. E.E.Q.,Ecuador,QUITO,EMEQECE1
bank_298,EMPRESA PUBLICA METROPOLITANA DE AGUA POTABLE Y SANEAMIENTO,Ecuador,QUITO,EPAPECE1
bank_299,INSTITUTO ECUATORIANO DE SEGURIDAD SOCIAL (IESS),Ecuador,QUITO,IESSECE1
bank_300,LLOYDS TSB BANK PLC,Ecuador,GUAYAQUIL,LOYDECE1200
bank_301,MINISTERIO DE AGRICULTURA Y GANADERIA,Ecuador,QUITO,MIGMECE1
bank_302,MINISTERIO DE FINANZAS,Ecuador,QUITO,MIFZECE1
bank_303,MINISTERIO DE INCLUSION ECONOMICA Y SOCIAL,Ecuador,QUITO,MIEYECE1
bank_304,MINISTERIO DE SALUD PUBLICA,Ecuador,QUITO,MSAPECE1
bank_305,MUNICIPIO DEL DISTRITO METROPOLITANO DE QUITO,Ecuador,QUITO,MUQUECE1
bank_306,MUTUALISTA AZUAY,Ecuador,CUENCA,MUAZECE1
bank_307,MUTUALISTA IMBABURA,Ecuador,IBARRA,MUIMECE1
bank_308,PICAVAL CASA DE VALORES SA,Ecuador,QUITO,PICVECE1
bank_309,SERVICIO DE RENTAS INTERNAS (SRI),Ecuador,QUITO,SRISECE1
bank_310,STOCK EXCHANGE OF QUITO BVQ SOCIEDAD ANONIMA,Ecuador,QUITO,XQUIECE1