id,name,country,city,bic,street,street2,zip,phone
1,Banco Central Del Ecuador,BANCO CENTRAL DEL ECUADOR,Ecuador,GUAYAQUIL,BCENECEQ120,,,,
2,Banco Pichincha C.A.,BANCO PICHINCHA C.A.,Ecuador,Quito,PICHECEQ,Av.Amazonas N39-34,Pereira,170801,(02)2980980
3,Banco De Guayaquil S.A,BANCO GUAYAQUIL S.A.,Ecuador,Guayaquil,GUAYECEG,Panama,Victor Manuel Rendon,90313,(04)3730100
4,Banco City Bank,Banco City Bank,Ecuador,,24,,
5,Banco Machala,"BANCO DE MACHALA, C.A.",Ecuador,Machala,BMACECEG,9 de Mayo,Rocafuerte,90313,(07)2930100
6,Banco De Loja,BANCO DE LOJA,Ecuador,Loja,LOJBECEL,Simon Bolivar,Vicente Rocafuerte,110108,(07)2593500
7,Banco Del Pacifico,BANCO DEL PACIFICO,Ecuador,Guayaquil,PACIECEG,Francisco Paula de Icaza,Pedro Carbo,90313,(04)3731500
8,Banco Internacional,BANCO INTERNACIONAL S.A.,Ecuador,Quito,BINTECEQ,Av.Patria E4-21,9 de Octubre,170143,(02)4009100
9,Banco Amazonas,BANCO AMAZONAS S.A.,Ecuador,Guayaquil,BASAECEG,Av.Francisco de Orellana,1er Pasaje 10,90512,(04)6021100
10,Banco Del Austro,BANCO DEL AUSTRO S.A.,Ecuador,Quito,AUSTECEQ,Amazonas,Sta María,170515,1800228787
11,Produbanco / Promerica,Produbanco / Promerica,Ecuador,,36,,
12,Banco Bolivariano,BANCO BOLIVARIANO C.A.,Ecuador,Guayaquil,BBOLECEG,Junín 200,Panamá,90313,(04)2305000
13,Banco Comercial De Manabi,BANCO COMERCIAL DE MANABI S.A.,Ecuador,Portoviejo,CBMIECE1,Av.Reales Tamarindos,Calle Alamos,130101,(05)2440102
14,Banco General Ruminahui S.A.,BANCO GENERAL RUMINAHUI S.A.,Ecuador,Guayaquil,BGRMECEQ,Av.Luis Plaza Dañin,Av.Pedro Menéndez Gilbert,90513,(04)2000000
15,Banco Del Litoral S.A.,BANCO DEL LITORAL,Ecuador,Guayaquil,LITBECEF,Avenida 12 NE 514,Av.Circunvalación Sur,90313,(04)3730510
16,Banco Solidario,BANCO SOLIDARIO,Ecuador,Quito,BSGEECEQ,Av.Río Amazonas,Corea,170135,(02)3950600
17,Banco Procredit S.A.,BANCO PROCREDIT S.A.,Ecuador,Quito,PRCBECEQ,Atahualpa y Amazonas Esq,,170135,(02) 6003820
18,Banco Capital,BANCO CAPITAL S.A,Ecuador,Quito,BCAPECEQ,Av.Río Amazonas 3461,Av.Atahualpa,170135,(02)2259021
19,Banco Desarrollo De Los Pueblos S.A.,BANCO DESARROLLO DE LOS PUEBLOS S.A.,Ecuador,Coca,CODSECEQ,Francisco de Orellana,,,(06)2882105
20,Banecuador B.P.,Banecuador B.P.,Ecuador,,66,,
21,Coop. Ahorro Y Credito 15 De Abril Ltda,COOPERATIVA DE AHORRO Y CREDITO 15 DE ABRIL LTDA,Ecuador,PORTOVIEJO,CHDRECE1,,,,
22,Coop. Jardin Azuayo,COOPERATIVA DE AHORRO Y CREDITO JARDIN AZUAYO LTDA,Ecuador,PAUTE,CCJAECE1,,,,
23,Coop.De Ahorro Y Credito Policia Nacional,COOPERATIVA DE AHORRO Y CREDITO POLICIA NACIONAL LTDA,Ecuador,QUITO,CPCCECE1,,,,
24,Financoop,Financoop,Ecuador,,82,,
25,Banco Delbank S.A.,BANCO DELBANK S.A.,Ecuador,GUAYAQUIL,DEBNECE1,,,,
26,Banco Ecuatoriano De La Vivienda,BANCO CENTRAL DEL ECUADOR,Ecuador,GUAYAQUIL,BCENECEQ120,,,,
27,Cacpeco Ltda,Cacpeco Ltda,Ecuador,,203,,
28,C.Peq.Empresa De Pastaza,C.Peq.Empresa De Pastaza,Ecuador,,204,,
29,Coop. Ahorro Y Credito 23 De Julio,COOPERATIVA DE AHORRO Y CREDITO 23 DE JULIO LTDA,Ecuador,CAYAMBE,CACJECE1,,,,
30,Coop. Ahorro Y Credito 29 De Octubre,COOPERATIVA DE AHORRO Y CREDITO '29 DE OCTUBRE' LTDA,Ecuador,CUENCA,COOCECE1320,,,,
31,Coop. Ahorro Y Credito Andalucia,COOPERATIVA DE AHORRO Y CREDITO ANDALUCIA LTDA,Ecuador,QUITO,CHEDECE1,,,,
32,Coop. Ahorro Y Credito Cotocollao,COOPERATIVA DE AHORRO Y CREDITO COCA LTDA,Ecuador,QUITO Y BOLIVAR,OAOCECE1,,,,
33,Coop. Ahorro Y Credito El Sagrario,COOPERATIVA DE AHORRO Y CREDITO EL SAGRARIO LTDA,Ecuador,AMBATO,CHSGECE1,,,,
34,Coop. Ahorro Y Credito Guaranda Ltda,COOPERATIVA DE AHORRO Y CREDITO GUARANDA LTDA,Ecuador,GUARANDA,CRGNECE1,,,,
35,Coop. Juventud Ecuatoriana Progresista Ltda.,COOPERATIVA DE AHORRO Y CREDITO JUVENTUD ECUATORIANA PROGRESISTA LTDA.,Ecuador,CUENCA,CJEPECEQ,,,,
36,Coop. Ahorro Y Credito Manuel,COOPERATIVA DE AHORRO Y CREDITO VICENTINA MANUEL ESTEBAN GODOY ORTEGA LTDA,Ecuador,LOJA,CPGMECE1,,,,
37,Coop. Ahorro Y Credito Oscus,COOPERATIVA DE AHORRO Y CREDITO OSCUS LTDA,Ecuador,AMBATO,CSOSECE1,,,,
38,Coop. Ahorro Y Credito Pablo Munoz Vega,COOPERATIVA DE AHORRO Y CREDITO PABLO MUNOZ VEGA,Ecuador,TULCAN,CHCBECE1,,,,
39,Coop. Ahorro Y Credito Progreso,COOPERATIVA DE AHORRO Y CREDITO COOPROGRESO LTDA.,Ecuador,QUITO,CHCRECE1,,,,
40,Coop. Ahorro Y Credito Riobamba,COOPERATIVA DE AHORRO Y CREDITO RIOBAMBA,Ecuador,RIOBAMBA,CHDMECE1,,,,
41,Coop. Ahorro Y Credito San Francisco,COOPERATIVA DE AHORRO Y CREDITO SAN FRANCISCO DE ASIS LTDA.,Ecuador,QUITO,CHTNECE1,,,,
42,Coop. Ahorro Y Credito Tulcan,COOPERATIVA DE AHORRO Y CREDITO TULCAN,Ecuador,TULCAN,CHRLECE1,,,,
43,Coop. De Ahorro Y Credito Atuntaqui Ltda.,COOPERATIVA DE AHORRO Y CREDITO ATUNTAQUI LTDA,Ecuador,ATUNTAQUI,CATQECE1,,,,
44,Coop. De Ahorro Y Credito Comercio Ltda Portoviejo,COOPERATIVA DE AHORRO Y CREDITO COMERCIO LTDA,Ecuador,PORTOVIEJO,CHRCECE1,,,,
45,Coop. De Ahorro Y Credito La Dolorosa Ltda,COOPERATIVA DE AHORRO Y CREDITO LA DOLOROSA LTDA.,Ecuador,DURAN,CHTDECE1,,,,
46,Coop. Prevision Ahorro Y Desarrollo,COOPERATIVA DE AHORRO Y CREDITO FUTURO Y DESARROLLO FUNDESARROLLO,Ecuador,QUITO,CHTFECE1,,,,
47,Coop.Ahorro Y Credito Alianza Del Valle Ltda,COOPERATIVA DE AHORRO Y CREDITO ALIANZA DEL VALLE LTDA,Ecuador,AMAGUANA,CAEZECE1,,,,
48,Coop Ahorro Y Credito Constrc Comercio Y Produc,COOPERATIVA DE AHORRO Y CREDITO CONSTRUCCION COMERCIO Y PRODUCCION LTDA,Ecuador,QUITO,CHDOECE1,,,,
49,Coop.Ahorro Y Credito Chone Ltda,COOPERATIVA DE AHORRO Y CREDITO CHONE LTDA,Ecuador,CHONE,CADHECE1,,,,
50,Cooperativa De Ahorro Y Credito Santa Ana Ltda,COOPERATIVA DE AHORRO Y CREDITO SANTA ANA LTDA,Ecuador,SANTA ANA,OHCTECE1,,,,
51,Financiera - Diners Club Del Ecuador,DINERS CLUB DEL ECUADOR S.A.,Ecuador,QUITO,DICDECEQ,,,,
52,Mutualista Ambato,ASOCIACION MUTUALISTA AMBATO,Ecuador,AMBATO,MUATECE1,,,,
53,Mutualista Azuay,MUTUALISTA AZUAY,Ecuador,CUENCA,MUAZECE1,,,,
54,Mutualista Imbabura,MUTUALISTA IMBABURA,Ecuador,IBARRA,MUIMECE1,,,,
55,Mutualista Pichincha,MUTUALISTA AZUAY,Ecuador,CUENCA,MUAZECE1,,,,
56,Coop De A. Y C. Corporacion Centro Ltda.,COOPERATIVA DE AHORRO Y CREDITO CORPORACION CENTRO LTDA,Ecuador,QUITO,CHDPECE1,,,,
57,Coop. De A. Y C. Cordillera De Los Andes Ltda.,Coop. De A. Y C. Cordillera De Los Andes Ltda.,Ecuador,,242,,
58,Coop. De A. Y C. Puerto Francisco De Orellana,COOPERATIVA DE AHORRO Y CREDITO PUERTO FRANCISCO DE ORELLANA,Ecuador,QUITO,OARPECE1,,,,
59,Coop. De A Y C. Luz Del Valle,COOPERATIVA DE AHORRO Y CREDITO LUZ DEL VALLE,Ecuador,RUMINAHUI,CATZECE1,,,,
60,Coop. De A Y C. Esperanza Y Progreso Del Valle,COOPERATIVA DE AHORRO Y CREDITO ESPERANZA Y PROGRESO DEL VALLE,Ecuador,RUMINAHUI,CAOZECE1,,,,
61,Coop. De A. Y C. Choco Tungurahua Runa Ltda,COOPERATIVA DE AHORRO Y CREDITO CHOCO TUNGURAHUA RUNA LTDA,Ecuador,QUITO,CAIHECE1,,,,
62,Coop. De A. Y C. Coopartamos Ltda,COOPERATIVA DE AHORRO Y CREDITO COOPARTAMOS LTDA,Ecuador,RUMINAHUI,OAEPECE1,,,,
63,Coop. De A. Y C. Emprendedores Coopemprender Ltda.,COOPERATIVA DE AHORRO Y CREDITO EMPRENDEDORES COOPEMPRENDER LIMITADA,Ecuador,QUITO,OAEEECE1,,,,
64,Coop. De A. Y C. Nueva Loja Ltda.,Coop. De A. Y C. Nueva Loja Ltda.,Ecuador,,250,,
65,Coop. De A. Y C. Pichncha Ltda.,COOPERATIVA DE AHORRO Y CREDITO PICHINCHA LTDA.,Ecuador,QUITO,OAIHECE1,,,,
66,Coop. Credito Y Ahorro San Francisco De Asis,COOPERATIVA DE AHORRO Y CREDITO SAN FRANCISCO DE ASIS LTDA.,Ecuador,QUITO,CHTNECE1,,,,
67,Coop.De Ahorro Y Credito Cacec Ltda. (Cotopaxi),COOPERATIVA DE AHORRO Y CREDITO COCA LTDA,Ecuador,QUITO Y BOLIVAR,OAOCECE1,,,,
68,Coop.De A. Y C. Vencedores De Pichincha Ltda.,COOPERATIVA DE AHORRO Y CREDITO VENCEDORES DE PICHINCHA LTDA CACVP,Ecuador,QUITO,CHDVECE1,,,,
69,Cooperativa De Ahorro Y Credito San Bartolo Ltda,COOPERATIVA DE AHORRO Y CREDITO SAN JOSE LTDA,Ecuador,CHIMBO,CSJSECE1,,,,
70,Coop. De A. Y C. Del Emigrante Ecuatoriano Y Su Fa,COOPERATIVA DE AHORRO Y CREDITO DEL EMIGRANTE ECUATORIANO Y SU FAMILIA LTDA,Ecuador,GUAYAQUIL,OAREECE1,,,,
71,Coop. Ahorro Y Credito La Libertad Ltda,COOPERATIVA DE AHORRO Y CREDITO CREDIL LTDA,Ecuador,SALCEDO,CHDLECE1,,,,
72,Coac Cuna De La Nacionalidad Ltda.,Coac Cuna De La Nacionalidad Ltda.,Ecuador,,259,,
73,Cooperativa De Ahorro Y Credito Macodes Ltda,COOPERATIVA DE AHORRO Y CREDITO MERCED LTDA,Ecuador,CUENCA,CSMDECE1,,,,
74,Cooperativa De Ahorro Y Credito Santa Isabel Ltda.,COOPERATIVA DE AHORRO Y CREDITO SANTA ISABEL LTDA,Ecuador,LOJA,OADSECE1,,,,
75,Cooperativa De Ahorro Y Credito Ganansol Ltda,COOPERATIVA DE AHORRO Y CREDITO GANANSOL LTDA,Ecuador,GUALACEO,OARGECE1,,,,
76,Cooperativa De Ahorro Y Credito Del Azuay,COOPERATIVA DE AHORRO Y CREDITO DEL AZUAY,Ecuador,GUALACEO,CHCZECE1,,,,
77,Cooperativa De Ahorro Y Credito Del Colegio De Arq,COOPERATIVA DE AHORRO Y CREDITO COLEGIO DE INGENIEROS CIVILES DEL AZUAY C.I.C.A.,Ecuador,CUENCA,OHCCECE1,,,,
78,Cooperativa De Ahorro Y Credito Nukanchik,COOPERATIVA DE AHORRO Y CREDITO NUKA LLAKTA LTDA,Ecuador,RIOBAMBA,CHTKECE1,,,,
79,Coop De Ahorro Y Credito Santa Ana Cuenca,COOPERATIVA DE AHORRO Y CREDITO SANTA ANA LTDA,Ecuador,SANTA ANA,OHCTECE1,,,,
80,Cooperativa De Ahorro Y Credito Multiempresarial L,COOPERATIVA DE AHORRO Y CREDITO MULTIEMPRESARIAL,Ecuador,CUENCA,OHRLECE1,,,,
81,Coac Del Sindicato De Choferes Profesionales Del A,Coac Del Sindicato De Choferes Profesionales Del A,Ecuador,,269,,
82,Coop. Ahorro Y Credito Juan De Salinas Ltda.,COOPERATIVA DE AHORRO Y CREDITO JUAN DE SALINAS,Ecuador,SANGOLQUI,CJSLECE1,,,,
83,Coop. Ahorro Y Credito Puellaro Ltda,COOPERATIVA DE AHORRO Y CREDITO PUELLARO LTDA,Ecuador,QUITO,CRPUECE1,,,,
84,Coop. Ahorro Y Credito Nueva Jerusalen,COOPERATIVA DE AHORRO Y CREDITO LA NUEVA JERUSALEN,Ecuador,QUITO,CDNJECE1,,,,
85,Coop. Ahorro Y Credito Malchingui Ltda.,COOPERATIVA DE AHORRO Y CREDITO COOPROGRESO LTDA.,Ecuador,QUITO,CHCRECE1,,,,
86,Coop. De Ahorro Y Credito Chola Cuencana Ltda.,COOPERATIVA DE AHORRO Y CREDITO CHOLA CUENCANA LTDA.,Ecuador,CUENCA,OAEHECE1,,,,
87,Coop. Ahorro Y Credito Tena Ltda.,COOPERATIVA DE AHORRO Y CREDITO TENA LTDA,Ecuador,TENA,CTENECE1,,,,
88,Coop. Ahorro Y Credito De La Pequena Empresa Guala,COOPERATIVA DE AHORRO Y CREDITO DE LA PEQUENA EMPRESA GUALAQUIZA,Ecuador,GUALAQUIZA,CPEQECE1,,,,
89,Coop. Ahorro Y Credito Alianza Minas Ltda.,COOPERATIVA DE AHORRO Y CREDITO ALIANZA MINAS LTDA,Ecuador,SAN JOSE DE MINAS,CAZMECE1,,,,
90,Coop. De Ahorro Y Credito Pedro Moncayo Ltda.,COOPERATIVA DE AHORRO Y CREDITO PEDRO MONCAYO LTDA,Ecuador,PEDRO MONCAYO,CPMYECE1,,,,
91,Cooperativa De Ahorro Y Credito Provida,COOPERATIVA DE AHORRO Y CREDITO PUCARA LTDA,Ecuador,PASTOCALLE,OHCPECE1,,,,
92,Cooperativa De Ahorro Y Credito San Jose S.J.,COOPERATIVA DE AHORRO Y CREDITO SAN JOSE S.J.,Ecuador,CUENCA,CSJOECE1,,,,
93,Coop. Ahorro Y Credito Senor De Giron,COOPERATIVA DE AHORRO Y CREDITO SENOR DE GIRON,Ecuador,GIRON,CSOGECE1,,,,
94,Coop. De Ahorro Y Credito Educ.Del Tungurahua Ltda,COOPERATIVA DE AHORRO Y CREDITO EDUCADORES DE TUNGURAHUA LTDA,Ecuador,AMBATO,CETAECE1,,,,
95,Cooperativa 15 De Agosto Pilacoto,COOPERATIVA DE AHORRO Y CREDITO 15 DE AGOSTO DE PILACOTO,Ecuador,LATACUNGA,CDRGECE1,,,,
96,Coop. De Ahorro Y Credito Cristo Rey,COOPERATIVA DE AHORRO Y CREDITO CRISTO REY,Ecuador,LOJA,CRIYECE1,,,,
97,Coop. De Ahorro Y Credito Educadores De Chimborazo,COOPERATIVA DE AHORRO Y CREDITO EDUCADORES PRIMARIOS DEL COTOPAXI,Ecuador,LATACUNGA,OACDECE1,,,,
98,Cooperativa De Ahorro Y Credito Minga Ltda.,COOPERATIVA DE AHORRO Y CREDITO MINGA LTDA,Ecuador,RIOBAMBA,CMINECE1,,,,
99,Coop. De Ahorro Y Credito 4 De Octubre Ltda.,COOPERATIVA DE AHORRO Y CREDITO 4 DE OCTUBRE,Ecuador,PENIPE,CEOCECE1,,,,
100,Coop. De Ahorro Y Credito Credi Facil Ltda.,COOPERATIVA DE AHORRO Y CREDITO CREDI FACIL LTDA,Ecuador,AMBATO,OHCIECE1,,,,
101,Coop. De Ahorro Y Credito Alfonso Jaramillo C.C.C.,COOPERATIVA DE AHORRO Y CREDITO ALFONSO JARAMILLO LEON C.C.C,Ecuador,CUENCA,CFJLECE1,,,,
102,Coop. De A. Y C. Indigena Sac Pelileo,Coop. De A. Y C. Indigena Sac Pelileo,Ecuador,,297,,
103,Coop. De A. Y C. Intercultural Tawantinsuyu Ltda.,COOPERATIVA DE AHORRO Y CREDITO INTERCULTURAL TAWANTINSUYU LTDA,Ecuador,AMBATO,OAOTECE1,,,,
104,Coop. De A. Y C. Ocipsa,Coop. De A. Y C. Ocipsa,Ecuador,,299,,
105,Coop. De A. Y C. 21 De Noviembre Ltda.,COOPERATIVA DE AHORRO Y CREDITO 21 DE NOVIEMBRE LTDA,Ecuador,AMBATO,CRTVECE1,,,,
106,Coop. De A. Y C. La Floresta Ltda.,COOPERATIVA DE AHORRO Y CREDITO LA FLORESTA LTDA,Ecuador,AMBATO,OAELECE1,,,,
107,Coop. De A. Y C. Corp. Org. Campesinas De Quisapin,COOPERATIVA DE AHORRO Y CREDITO DE LA CORP DE ORG. CAMPESINAS INDIGENAS DE QUISAPINCHA COCIQ,Ecuador,AMBATO,OAIOECE1,,,,
108,Coop. De A. Y C. Multicultural Banco Indigena Ltda,COOPERATIVA DE AHORRO Y CREDITO MULTICULTURAL INDIGENA LTDA,Ecuador,AMBATO,CHTMECE1,,,,
109,Coop De A. Y C. Crecer Winari Ltda.,COOPERATIVA DE AHORRO Y CREDITO CRECER WINARI LTDA,Ecuador,AMBATO,OACCECE1,,,,
110,Coop. De A. Y C. Banos De Agua Santa Ltda.,Coop. De A. Y C. Banos De Agua Santa Ltda.,Ecuador,,305,,
111,Coop. De Ahorro Y Credito 1 De Julio,COOPERATIVA DE AHORRO Y CREDITO 1 DE JULIO,Ecuador,AMBATO,CORJECE1,,,,
112,Coop. De A. Y C. Sumak Nan Ltda.,COOPERATIVA DE AHORRO Y CREDITO SUMAK NAN LTDA.,Ecuador,AMBATO,CRTKECE1,,,,
113,Cooperativa De Ahorro Y Credito Canar Ltda.,COOPERATIVA DE AHORRO Y CREDITO CANAR LTDA,Ecuador,GUAYAQUIL,OADCECE1,,,,
114,Cooperativa De Ahorro Y Credito San Antonio Ltda.,COOPERATIVA DE AHORRO Y CREDITO SAN ANTONIO LTDA,Ecuador,IBARRA,OAESECE1,,,,
115,Coop. De Ahorro Y Credito Fundar,COOPERATIVA DE AHORRO Y CREDITO FONDO PARA EL DESARROLLO Y LA VIDA,Ecuador,QUITO,OHDFECE1,,,,
116,Coop. Ahorro Y Credito Metropolis Ltda.,COOPERATIVA DE AHORRO Y CREDITO METROPOLIS LTDA,Ecuador,QUINSALOMA,OHDMECE1,,,,
117,Coop. De Ahorro Y Credito El Cafetal,COOPERATIVA DE AHORRO Y CREDITO EL CAFETAL,Ecuador,BABAHOYO,OHCFECE1,,,,
118,Coop.De Ahorro Y Credito Microempresarial Sucre,COOPERATIVA DE AHORRO Y CREDITO MICROEMPRESARIAL SUCRE,Ecuador,SUCRE,OHCMECE1,,,,
119,Coop. De A. Y C. Afroecuatoriana De La Peq. Emp. L,Coop. De A. Y C. Afroecuatoriana De La Peq. Emp. L,Ecuador,,315,,
120,Cooperativa De Ahorro Y Credito Joyocoto Ltda.,COOPERATIVA DE AHORRO Y CREDITO JOYOCOTO LTDA,Ecuador,GUARANDA,CATJECE1,,,,
121,Coop. Ahorro Y Credito San Antonio Ltda.,COOPERATIVA DE AHORRO Y CREDITO SAN ANTONIO LTDA,Ecuador,IBARRA,OAESECE1,,,,
122,Coop. De A. Y C. Uniotavalo Ltda.,COOPERATIVA DE AHORRO Y CREDITO UNIOTAVALO LTDA,Ecuador,OTAVALO,CHTVECE1,,,,
123,Coop. De A. Y C. Union El Ejido,COOPERATIVA DE AHORRO Y CREDITO UNION EL EJIDO,Ecuador,COTACACHI,OAEIECE1,,,,
124,Coop. De A. Y C. Genesis Ltda.,Coop. De A. Y C. Genesis Ltda.,Ecuador,,320,,
125,Coop. De A Y C. Maria Auxiliadora De Quiroga Ltda,Coop. De A Y C. Maria Auxiliadora De Quiroga Ltda,Ecuador,,321,,
126,Coop. De A. Y C. Fortaleza,Coop. De A. Y C. Fortaleza,Ecuador,,322,,
127,Banco Para La Asistencia Comunitaria Finca S.A.,BANCO FINCA S.A.,Ecuador,Quito,FCNCECE1,Av.Rio Amazonas N39-123,José Arizaga,170135,(02)2461660
128,Coop. Calceta Ltda,COOPERATIVA DE AHORRO Y CREDITO CALCETA LTDA,Ecuador,CALCETA,OATEECE1,,,,
129,Coop. Ahorro Y Credito 9 De Octubre Ltda,COOPERATIVA DE AHORRO Y CREDITO 9 DE OCTUBRE LTDA,Ecuador,SALCEDO,CHDTECE1,,,,
130,Coop. Ahorro Y Credito D La Peq Empr Cacpe Biblian,COOPERATIVA DE AHORRO Y CREDITO DE LA PEQUENA EMPRESA BIBLIAN LTDA,Ecuador,BIBLIAN,CPMBECE1,,,,
131,Coop. Ahorro Y Credito San Gabriel Ltda.,COOPERATIVA DE AHORRO Y CREDITO SAN GABRIEL LTDA,Ecuador,MONTUFAR,CSGAECE1,,,,
132,Coop. Ahorro Y Credito San Jose Ltda,COOPERATIVA DE AHORRO Y CREDITO SAN JOSE LTDA,Ecuador,CHIMBO,CSJSECE1,,,,
133,Coop. Ahorro Y Credito San Miguel De Los Bancos,COOPERATIVA DE AHORRO Y CREDITO SAN MIGUEL DE LOS BANCOS LTD,Ecuador,SAN MIGUEL DE LOS BANCOS,CSMNECE1,,,,
134,Coop. Ahorro Y Credito Semilla Del Progreso Ltda,COOPERATIVA DE AHORRO Y CREDITO SEMILLA DEL PROGRESO LTDA,Ecuador,SARAGURO,CESGECE1,,,,
135,Coop. Ahorro. Y Credi. Mujeres Unidas Tantanakushk,COOPERATIVA DE AHORRO Y CREDITO MUJERES UNIDAS,Ecuador,IBARRA,CDMUECE1,,,,
136,Coop. De Ahorro Y Cred. Santa Rosa Ltda,COOPERATIVA DE AHORRO Y CREDITO SANTA ROSA LTDA,Ecuador,SANTA ROSA,CHDNECE1,,,,
137,Coop. De Ahorro Y Credito Once De Junio,COOPERATIVA DE AHORRO Y CREDITO ONCE DE JUNIO,Ecuador,MACHALA,CHRNECE1,,,,
138,Coop. De A. Y C. Pujili Ltda,COOPERATIVA DE AHORRO Y CREDITO PUJILI LTDA.,Ecuador,PUJILI,CHTJECE1,,,,
139,Coop. De A. Y C. Credil Ltda.,COOPERATIVA DE AHORRO Y CREDITO CREDIL LTDA,Ecuador,SALCEDO,CHDLECE1,,,,
140,Coop. De A. Y C. Mushuk Pakari Ltda.,Coop. De A. Y C. Mushuk Pakari Ltda.,Ecuador,,339,,
141,Coop. De A. Y C. Uniblock Y Servicios Ltda.,COOPERATIVA DE AHORRO Y CREDITO UNIBLOCK Y SERVICIOS LTDA,Ecuador,LATACUNGA,CHDKECE1,,,,
142,Coop. De A. Y C. San Fernando Limitada,COOPERATIVA DE AHORRO Y CREDITO SAN FERNANDO LTDA,Ecuador,AMBATO,OAEFECE1,,,,
143,Coop. De A. Y C. Futuro Lamanense,COOPERATIVA DE AHORRO Y CREDITO FUTURO LAMANENSE,Ecuador,LA MANA,OHETECE1,,,,
144,Coop. De A. Y C. Saquisili Ltda.,COOPERATIVA DE AHORRO Y CREDITO SAQUISILI LTDA.,Ecuador,SAQUISILI,CRCQECE1,,,,
145,Coop. De A. Y C. Innovacion Andina Ltda.,COOPERATIVA DE AHORRO Y CREDITO INNOVACION ANDINA LTDA.,Ecuador,LATACUNGA,OHCVECE1,,,,
146,Coop.De A.Y C. El Comerciante Ltda (Mies),COOPERATIVA DE AHORRO Y CREDITO COMERCIO LTDA,Ecuador,PORTOVIEJO,CHRCECE1,,,,
147,Coop. De A. Y C. Mushuk Wasi Ltda ( Mies ),COOPERATIVA DE AHORRO Y CREDITO MUSHUKWASI,Ecuador,SARAGURO,CAEWECE1,,,,
148,Cooperativa De Ahorro Y Credito Solidaria Ltda,COOPERATIVA DE AHORRO Y CREDITO SOLIDARIA LTDA,Ecuador,LOJA,OARSECE1,,,,
149,Cooperativa De Ahorro Y Credito Llanganates,COOPERATIVA DE AHORRO Y CREDITO CREDIL LTDA,Ecuador,SALCEDO,CHDLECE1,,,,
150,Interdin S.A.,Interdin S.A.,Ecuador,,349,,
151,Coop.Aho Y Credito De La Peq. Emp. De Loja Cacpe,COOPERATIVA DE AHORRO Y CREDITO DE LA PEQUENA EMPRESA CACPE LOJA LTDA,Ecuador,LOJA,CARQECE1,,,,
152,Cooperativa De Ahorro Y Credito Economia Del Sur C,COOPERATIVA DE AHORRO Y CREDITO ECONOMIA DEL SUR ECOSUR,Ecuador,SARAGURO,OADEECE1,,,,
153,Cooperativa De Ahorro Y Credito Migrantes Y Empren,COOPERATIVA DE AHORRO Y CREDITO EL MIGRANTE SOLIDARIO,Ecuador,BIBLIAN,CHDGECE1,,,,
154,Cooperativa De Ahorro Y Credito San Sebastian,COOPERATIVA DE AHORRO Y CREDITO SAN JOSE LTDA,Ecuador,CHIMBO,CSJSECE1,,,,
155,Coop. De A. Y C. Del Sindicato De Choferes Profesi,COOPERATIVA DE AHORRO Y CREDITO DEL SINDICATO DE CHOFERES PROFESIONALES DEL AZUAY LTDA,Ecuador,CUENCA,OADTECE1,,,,
156,Coop.De Ahorro Y Credito 29 De Enero,COOPERATIVA DE AHORRO Y CREDITO 23 DE ENERO,Ecuador,PUYANGO,OHREECE1,,,,
157,Coop. Ahorro Y Credito Agraria Mushuk Kawsay Ltda.,COOPERATIVA DE AHORRO Y CREDITO MUSHUK KAWSAY LTDA,Ecuador,QUITO,CAMWECE1,,,,
158,Cooperativa De Ahorro Y Credito Runa Shungo Ltda.,COOPERATIVA DE AHORRO Y CREDITO MUSHUC RUNA LTDA,Ecuador,AMBATO,CMRUECE1,,,,
159,Coop. De A. Y C. San Marcos,COOPERATIVA DE AHORRO Y CREDITO SAN MARCOS,Ecuador,AZOGUES,OACSECE1,,,,
160,Coop. De A. Y C. Antorcha Ltda.,COOPERATIVA DE AHORRO Y CREDITO ANTORCHA LTDA.,Ecuador,ESMERALDAS,OARHECE1,,,,
161,Cooperativa De Ahorro Y Credito Socio Amigo,COOPERATIVA DE AHORRO Y CREDITO SOCIO AMIGO COOPSA,Ecuador,MARCABELI,OAEOECE1,,,,
162,Coop. De A. Y C. Indigenas Galapagos Ltda.,COOPERATIVA DE AHORRO Y CREDITO INDIGENAS GALAPAGOS LTDA.,Ecuador,SANTA CRUZ,OHRGECE1,,,,
163,Coop. Ahorro Y Credito Camara De Comercio Del Cant,COOPERATIVA DE AHORRO Y CREDITO CAMARA DE COMERCIODEL CANTON EL CARMEN LTDA,Ecuador,EL CARMEN,OAERECE1,,,,
164,Cooperativa De Ahorro Y Credito La Benefica Ltda.,COOPERATIVA DE AHORRO Y CREDITO LA BENEFICA LTDA,Ecuador,EL CARMEN,CHEFECE1,,,,
165,Coop.De Ahorro Y Credito Abdon Calderon Ltda.,COOPERATIVA DE AHORRO Y CREDITO ABDON CALDERON LTDA,Ecuador,PORTOVIEJO,OACBECE1,,,,
166,Coop. A Y C Camara De Comercio Canton -El Carmen L,COOPERATIVA DE AHORRO Y CREDITO CAMARA DE COMERCIODEL CANTON EL CARMEN LTDA,Ecuador,EL CARMEN,OAERECE1,,,,
167,Coop.De Ahorro Y Credito Agroproductiva Manabi Ltd,COOPERATIVA DE AHORRO Y CREDITO CACPE MANABI,Ecuador,PORTOVIEJO,OACPECE1,,,,
168,Coop. De Ahorro Y Cred. La Inmaculada De San Placi,COOPERATIVA DE AHORRO Y CREDITO LA INMACULADA DE SAN PLACIDO LTDA,Ecuador,PORTOVIEJO,OAIIECE1,,,,
169,Coop. Ahorro Y Credito Cacpe Manabi,COOPERATIVA DE AHORRO Y CREDITO CACPE MANABI,Ecuador,PORTOVIEJO,OACPECE1,,,,
170,Coop.Ahorro Y Credito Magisterio Manabita Limitada,COOPERATIVA DE AHORRO Y CREDITO MAGISTERIO MANABITA LIMITADA,Ecuador,PORTOVIEJO,OACIECE1,,,,
171,Coac Tienda De Dinero Ltda.,Coac Tienda De Dinero Ltda.,Ecuador,,370,,
172,Coop.A.Y C. Santa Maria De La Manga Del Cura Ltda.,COOPERATIVA DE AHORRO Y CREDITO SANTA MARIA DE LA MANGA DEL CURA LTDA.,Ecuador,PUERTO BAQUERIZO MORENO,OHRTECE1,,,,
173,Coop. Ahorro Y Credito Camara De Comercio Indigena,COOPERATIVA DE AHORRO Y CREDITO CAMARA DE COMERCIO DE LOJA,Ecuador,LOJA,OHERECE1,,,,
174,Coop. De A. Y C. Guamote Ltda.,COOPERATIVA DE AHORRO Y CREDITO GUAMOTE LTDA,Ecuador,GUAMOTE,OATMECE1,,,,
175,Coop. De A.Y C. Produc. Ahorro Invers. Servicio P.,COOPERATIVA DE AHORRO Y CREDITO PRODUCCION AHORRO INVERSION SERVICIO P.A.I.S. LTDA,Ecuador,RIOBAMBA,OARRECE1,,,,
176,Coop. De A. Y C. Frandesc Ltda.,Coop. De A. Y C. Frandesc Ltda.,Ecuador,,383,,
177,Coop. De A. Y C. Nuka Llakta Ltda.,COOPERATIVA DE AHORRO Y CREDITO NUKA LLAKTA LTDA,Ecuador,RIOBAMBA,CHTKECE1,,,,
178,Coop. De A Y C. Camara De Comercio Riobamba,COOPERATIVA DE AHORRO Y CREDITO CAMARA DE COMERCIO DE RIOBAMBA LTDA,Ecuador,RIOBAMBA,OADBECE1,,,,
179,Coop. De A. Y C. Bashalan Ltda.,COOPERATIVA DE AHORRO Y CREDITO BASHALAN LTDA,Ecuador,RIOBAMBA,COOHECE1,,,,
180,Coop. De A. Y C. Camara De Comercio Santo Domingo,COOPERATIVA DE AHORRO Y CREDITO CAMARA DE COMERCIO DE SANTO DOMINGO,Ecuador,SANTO DOMINGO,OARAECE1,,,,
181,Coop. De A. Y C. Educadores Tulcan Ltda.,COOPERATIVA DE AHORRO Y CREDITO EDUCADORES TULCAN LTDA.,Ecuador,TULCAN,OARDECE1,,,,
182,Coop. Warmikunapak Rikchari,Coop. Warmikunapak Rikchari,Ecuador,,400,,
183,Coop Ahorro Y Credito Mi Tierra,COOPERATIVA DE AHORRO Y CREDITO MI TIERRA,Ecuador,PELILEO,CMTRECE1,,,,
184,Coop Ahorro Y Credito De La Peq Emp Cacpe Yanzatza,COOPERATIVA DE AHORRO Y CREDITO DE LA PEQUENA EMPRESA CACPE YANTZAZA LTDA,Ecuador,YANTZAZA,CAIQECE1,,,,
185,Coop Ahorro Y Credito Fundesarrollo,COOPERATIVA DE AHORRO Y CREDITO FONDO PARA EL DESARROLLO Y LA VIDA,Ecuador,QUITO,OHDFECE1,,,,
186,Caja Ecuaespana,Caja Ecuaespana,Ecuador,,406,,
187,Coop De Ahorro Y Credito Nueva Huancavilca,COOPERATIVA DE AHORRO Y CREDITO NUEVA HUANCAVILCA,Ecuador,LA LIBERTAD,CNHCECE1,,,,
188,Coop De Ahorro Y Credito Erco Ltda,COOPERATIVA DE AHORRO Y CREDITO ERCO LTDA,Ecuador,CUENCA,CEORECE1,,,,
189,Coop Ahorro Y Credito Camara Comercio De Ambato,COOPERATIVA DE AHORRO Y CREDITO CAMARA DE COMERCIO DE AMBATO LTDA,Ecuador,AMBATO,CMCOECE1,,,,
190,Coop Ahorro Y Credito Mushuc Runa Ltda,COOPERATIVA DE AHORRO Y CREDITO MUSHUC RUNA LTDA,Ecuador,AMBATO,CMRUECE1,,,,
191,Coop De Ahorro Y Credito Ambato Ltda,COOPERATIVA DE AHORRO Y CREDITO AMBATO LTDA,Ecuador,AMBATO,CDCAECE1,,,,
192,Coop De Ahorro Y Credito Dorado Ltda,COOPERATIVA DE AHORRO Y CREDITO DORADO LTDA,Ecuador,AMBATO,CRODECE1,,,,
193,Coop De Ahorro Y Credito Nuestros Abuelos Ltda,COOPERATIVA DE AHORRO Y CREDITO CREDIL LTDA,Ecuador,SALCEDO,CHDLECE1,,,,
194,Coop De Ahorro Y Credito Artesanos Ltda,COOPERATIVA DE AHORRO Y CREDITO ARTESANOS LTDA,Ecuador,IBARRA,CDASECE1,,,,
195,Coop De Ahorro Y Credito Santa Anita Ltda,COOPERATIVA DE AHORRO Y CREDITO SANTA ANITA LTDA,Ecuador,COTACACHI,CDSAECE1,,,,
196,Coop De Ahorro Y Credito Huayco Pungo Ltda,COOPERATIVA DE AHORRO Y CREDITO HUAQUILLAS LTDA,Ecuador,HUAQUILLAS,CHDQECE1,,,,
197,Coop Manuel Esteban Godoy Ortega Ltda Coopmego,Coop Manuel Esteban Godoy Ortega Ltda Coopmego,Ecuador,,420,,
198,Coop Ahorro Y Credito Padre Julian Lorente Ltda,COOPERATIVA DE AHORRO Y CREDITO PADRE JULIAN LORENTE LTDA,Ecuador,LOJA,CHRPECE1,,,,
199,Coop Ahorro Y Credito Cariamanga Ltda,COOPERATIVA DE AHORRO Y CREDITO CARIAMANGA LTDA,Ecuador,CALVAS,OARMECE1,,,,
200,Coop De Ahorro Y Credito Marcabeli Ltda,COOPERATIVA DE AHORRO Y CREDITO MARCABELI LTDA,Ecuador,MARCABELI,CHTBECE1,,,,
201,Coop De Ahorro Y Credito Agricola Junin Ltda,COOPERATIVA DE AHORRO Y CREDITO AGRICOLA JUNIN,Ecuador,JUNIN,OACRECE1,,,,
202,Coop De Ahorro Y Credito Puerto Lopez Ltda,COOPERATIVA DE AHORRO Y CREDITO PUERTO LOPEZ LTDA,Ecuador,PUERTO LOPEZ,OACUECE1,,,,
203,Coop De Ahorro Y Credito Nueva Esperanza,COOPERATIVA DE AHORRO Y CREDITO NUEVA ESPERANZA LTDA,Ecuador,RIOBAMBA,CNESECE1,,,,
204,Coop De Ahorro Y Credito San Jorge Ltda,COOPERATIVA DE AHORRO Y CREDITO SAN JORGE LTDA,Ecuador,RIOBAMBA,CSJGECE1,,,,
205,Coop De Ahorro Y Credito Fernando Daquilema,COOPERATIVA DE AHORRO Y CREDITO FERNANDO DAQUILEMA,Ecuador,RIOBAMBA,CHCFECE1,,,,
206,Coop De A Y C Educadores De Pastaza Ltda,COOPERATIVA DE AHORRO Y CREDITO EDUCADORES DE PASTAZA LTDA,Ecuador,PUYO,OARUECE1,,,,
207,Coop. A. Y C. De La Peq. Emp. Cacpe Zamora Ltda,Coop. A. Y C. De La Peq. Emp. Cacpe Zamora Ltda,Ecuador,,450,,
208,Coop. De A. Y C. Desarrollo Integral Ltda,Coop. De A. Y C. Desarrollo Integral Ltda,Ecuador,,451,,
209,Coop. De Ahorro Y Credito El Calvario Ltda,COOPERATIVA DE AHORRO Y CREDITO EL CALVARIO LTDA,Ecuador,TISALEO,OARVECE1,,,,
210,Coop. De A. Y C. Juan Pio De Mora Ltda,COOPERATIVA DE AHORRO Y CREDITO JUAN PIO DE MORA LTDA,Ecuador,SAN MIGUEL,CAEJECE1,,,,
211,Coop. De Ahorro Y Credito Pilahuin,COOPERATIVA DE AHORRO Y CREDITO PILAHUIN,Ecuador,SALCEDO,CAOHECE1,,,,
212,Coop. De Ahorro Y Credito Pucara Ltda,COOPERATIVA DE AHORRO Y CREDITO PUCARA LTDA,Ecuador,PASTOCALLE,OHCPECE1,,,,
213,Coop. A. Y C. Camara De Comercio De Pindal Cadecop,COOPERATIVA DE AHORRO Y CREDITO CAMARA DE COMERCIO DE LOJA,Ecuador,LOJA,OHERECE1,,,,
214,Banco Del Instituto Ecuatoriano De Seguridad Social,INSTITUTO ECUATORIANO DE SEGURIDAD SOCIAL (IESS),Ecuador,QUITO,IESSECE1,,,,
215,Coop De A Y C De Serv Publ Del Min Educacion Y Cul,COOPERATIVA DE AHORRO Y CREDITO DE LOS SERVIDORES PUBLICOS DEL MINISTERIO DE EDUCACION Y CULTURA,Ecuador,QUITO,OAIVECE1,,,,
216,Coop De A Y C 23 De Mayo Ltda,COOPERATIVA DE AHORRO Y CREDITO 23 DE MAYO LTDA,Ecuador,QUITO,CHCYECE1,,,,
217,Coop De A Y C Coca Ltda,COOPERATIVA DE AHORRO Y CREDITO COCA LTDA,Ecuador,QUITO Y BOLIVAR,OAOCECE1,,,,
218,Coop De Ahorro Y Credito Pilahuin Tio Ltda,COOPERATIVA DE AHORRO Y CREDITO PILAHUIN TIO LTDA,Ecuador,OTAVALO,CRIHECE1,,,,
219,Coop De Ahorro Y Credito Huaicana Ltda,COOPERATIVA DE AHORRO Y CREDITO HUAICANA LTDA,Ecuador,QUITO,CRTHECE1,,,,
220,Coop De A Y C Credisur Ltda,Coop De A Y C Credisur Ltda,Ecuador,,468,,
221,Fondo De Cesantia Del Magisterio Ecuat Fcme-Fcpc,Fondo De Cesantia Del Magisterio Ecuat Fcme-Fcpc,Ecuador,,469,,
222,Coop De Ahorro Y Credito Huaquillas Ltda,COOPERATIVA DE AHORRO Y CREDITO HUAQUILLAS LTDA,Ecuador,HUAQUILLAS,CHDQECE1,,,,
223,Coop De A Y C Banos Ltda,Coop De A Y C Banos Ltda,Ecuador,,472,,
224,Coop De Ahorro Y Credito Cac-Cica Mies,COOPERATIVA DE AHORRO Y CREDITO CACPE CELICA,Ecuador,CELICA,OATPECE1,,,,
225,Coop De A Y C Vencedores De Tungurahua,COOPERATIVA DE AHORRO Y CREDITO VENCEDORES DE TUNGURAHUA LTDA,Ecuador,AMBATO,OADVECE1,,,,
226,Coop A Y C Ecuafuturo Ltda,COOPERATIVA DE AHORRO Y CREDITO ECUAFUTURO LTDA,Ecuador,AMBATO,OAIUECE1,,,,
227,Coop De A Y C Maquita Cushun Ltda,COOPERATIVA DE AHORRO Y CREDITO MAQUITA CUSHUN LTDA,Ecuador,AMBATO,CHRQECE1,,,,
228,Coop De A Y C Valles Del Lirio,COOPERATIVA DE AHORRO Y CREDITO VALLES DEL LIRIO AICEP,Ecuador,AMBATO,OATVECE1,,,,
229,Coop Esfuerzo Unido Para El Desarr Del Chilco,COOPERATIVA DE AHORRO Y CREDITO ESFUERZO UNIDO PARA EL DESARROLLO DEL CHILCO LA ESPERANZA LTDA,Ecuador,TISALEO,CHEZECE1,,,,
230,Coop A Y C Carroceros De Tungurahua,Coop A Y C Carroceros De Tungurahua,Ecuador,,480,,
231,Coop De Ahorro Y Credito Simiatug Ltda,COOPERATIVA DE AHORRO Y CREDITO SIMIATUG LIMITADA,Ecuador,GUARANDA,OAITECE1,,,,
232,Coop De A Y C Sinchi Runa Ltda,COOPERATIVA DE AHORRO Y CREDITO SINCHI RUNA LTDA,Ecuador,SAQUISILI,CRCHECE1,,,,
233,Coop De A Y C Santa Rosa De Pautan Ltda,COOPERATIVA DE AHORRO Y CREDITO SANTA ROSA DE PATUTAN LTDA,Ecuador,LATACUNGA,OATSECE1,,,,
234,Coop De Ahorro Y Credito San Miguel De Sigchos,COOPERATIVA DE AHORRO Y CREDITO SAN MIGUEL DE SIGCHOS,Ecuador,SIGCHOS,OAOSECE1,,,,
235,Coop De A Y C Sierra Centro Ltda,COOPERATIVA DE AHORRO Y CREDITO SIERRA CENTRO LTDA,Ecuador,LATACUNGA,OAOIECE1,,,,
236,Coop De A Y C Gonzanama Mies,COOPERATIVA DE AHORRO Y CREDITO GONZANAMA,Ecuador,GONZANAMA,CHRZECE1,,,,
237,Coop De Ahorro Y Credito Quilanga Ltda,COOPERATIVA DE AHORRO Y CREDITO QUILANGA LTDA,Ecuador,QUILANGA,CHCQECE1,,,,
238,Coop De Ahorro Y Credito 27 De Abril Loja,COOPERATIVA DE AHORRO Y CREDITO 27 DE ABRIL,Ecuador,LOJA,OATAECE1,,,,
239,Coop De A Y C Crediamigo Ltda Loja Mies,Coop De A Y C Crediamigo Ltda Loja Mies,Ecuador,,489,,
240,Coop De Ahorro Y Credito Fortuna Mies,COOPERATIVA DE AHORRO Y CREDITO DE LA MICROEMPRESAFORTUNA,Ecuador,LOJA,OAIPECE1,,,,
241,Coop A Y C Profesionales Del Volante Union Ltda,Coop A Y C Profesionales Del Volante Union Ltda,Ecuador,,491,,
242,Coop De Ahorro Y Credito Cacpe Celica,COOPERATIVA DE AHORRO Y CREDITO CACPE CELICA,Ecuador,CELICA,OATPECE1,,,,
243,Coop De A Y C Futuro Y Progreso De Galapagos Ltda,COOPERATIVA DE AHORRO Y CREDITO FUTURO Y PROGRESO DE GALAPAGOS,Ecuador,SANTA CRUZ,OATFECE1,,,,
244,Coop De A Y C Sumac Llacta Ltda,COOPERATIVA DE AHORRO Y CREDITO SUMAC LLACTA LTDA,Ecuador,RIOBAMBA,OAEMECE1,,,,
245,Coop De A Y C Lucha Campesina Ltda,COOPERATIVA DE AHORRO Y CREDITO LUCHA CAMPESINA,Ecuador,CUMANDA,CREHECE1,,,,
246,Coop De A Y C Maquita Cushunchic Ltda,COOPERATIVA DE AHORRO Y CREDITO MAQUITA CUSHUNCHIC LTDA,Ecuador,QUITO,CHOQECE1,,,,
247,Coop A Y C Focla,COOPERATIVA DE AHORRO Y CREDITO FOCLA,Ecuador,LAGO AGRIO,CHDFECE1,,,,
248,Coop De A Y C Casag Ltda,COOPERATIVA DE AHORRO Y CREDITO CASAG,Ecuador,QUITO,CHRGECE1,,,,
249,Banco D Miro Sa,BANCO D-MIRO S.A.,Ecuador,Guayaquil,DMIRECE1,Coop. Américo Vespucio 2,"A, Solar 8, Vía Perimetral Km",,(04)3700500
250,Coop De A Y C General Ruminahui,Coop De A Y C General Ruminahui,Ecuador,,501,,
251,Coop De A Y C Financiera Indigena Ltda,COOPERATIVA DE AHORRO Y CREDITO MULTICULTURAL INDIGENA LTDA,Ecuador,AMBATO,CHTMECE1,,,,
252,Coop A Y C 20 Febrero Ltda,COOPERATIVA DE AHORRO Y CREDITO 20 DE FEBRERO LTDA.,Ecuador,QUITO,CHOBECE1,,,,
253,Coop De A Y C Del Col. Fisc. Vicente Rocafuerte,Coop De A Y C Del Col. Fisc. Vicente Rocafuerte,Ecuador,,504,,
254,Coop De A Y C Jadan Ltda (Mies),COOPERATIVA DE AHORRO Y CREDITO JADAN,Ecuador,GUALACEO,CCHEECE1,,,,
255,Coop De A Y C Inka Kipu Ltda,Coop De A Y C Inka Kipu Ltda,Ecuador,,509,,
256,Coop De A Y C Accion Tungurahua Ltda,COOPERATIVA DE AHORRO Y CREDITO ACCION TUNGURAHUA LTDA.,Ecuador,AMBATO,OAEAECE1,,,,
257,Coop De A Y C Pijal,COOPERATIVA DE AHORRO Y CREDITO PIJAL,Ecuador,OTAVALO,CHDJECE1,,,,
258,Coop De A Y C Escencia Indigena Ltda,COOPERATIVA DE AHORRO Y CREDITO ESCENCIA INDIGENA LTDA,Ecuador,IBARRA,OACEECE1,,,,
259,Coop De A Y C Union Mercedaria Ltda,COOPERATIVA DE AHORRO Y CREDITO MERCED LTDA,Ecuador,CUENCA,CSMDECE1,,,,
260,Coop De A Y C Catamayo Ltda,Coop De A Y C Catamayo Ltda,Ecuador,,514,,
261,Coop De A Y C De La Peq Empresa Cacpe Macara,COOPERATIVA DE AHORRO Y CREDITO DE LA PEQUENA EMPRESA CACPE MACARA,Ecuador,LOJA,CODQECE1,,,,
262,Coop A Y C Nuevos Horizontes El Oro Ltda,COOPERATIVA DE AHORRO Y CREDITO EDUCADORES DE EL ORO LTDA,Ecuador,MACHALA,OADOECE1,,,,
263,Banco Coopnacional Sa,BANCO COOPNACIONAL S.A.,Ecuador,Guayaquil,CPOCECE1,Capitán Nájera 4210,La 14 ava,,(04)3709820
264,Coop De A Y C 16 De Junio,COOPERATIVA DE AHORRO Y CREDITO 16 DE JUNIO,Ecuador,MACHALA,CHCJECE1,,,,
265,Coop A Y C Esc Sup Politec Agrop De Manabi Manuel,COOPERATIVA DE AHORRO Y CREDITO CACPE MANABI,Ecuador,PORTOVIEJO,OACPECE1,,,,
266,Coop De Ahorro Y Credito Fasaynan Ltda,COOPERATIVA DE AHORRO Y CREDITO FASAYNAN LTDA,Ecuador,CHORDELEG,CHRYECE1,,,,
267,Coop Cacique Guritave,Coop Cacique Guritave,Ecuador,,546,,
268,Coop Solidaridad Y Progreso Oriental,COOPERATIVA DE AHORRO Y CREDITO SOLIDARIDAD Y PROGRESO ORIENTAL,Ecuador,AZOGUES,CRTDECE1,,,,
269,Coop. De Aho Y Cred Los Andes Latinos Ltda.,COOPERATIVA DE AHORRO Y CREDITO LOS ANDES LATINOS LTDA,Ecuador,GUAYAQUIL,OATLECE1,,,,
270,C. De A. Y C Coopac Austro Ltda (Miess),COOPERATIVA DE AHORRO Y CREDITO COOPAC AUSTRO LTDA,Ecuador,CUENCA,OADPECE1,,,,
271,Coop. De A. Y C. Salasaca,COOPERATIVA DE AHORRO Y CREDITO SALASACA,Ecuador,SAN PEDRO DE PELILEO,OARLECE1,,,,
272,Coop. De A. Y C. Sumak Samy Ltda.,COOPERATIVA DE AHORRO Y CREDITO SUMAK SAMY LTDA,Ecuador,AMBATO,CORKECE1,,,,
273,C. A. Y C. Intercult. Tarpuk Runa Ltda.,COOPERATIVA DE AHORRO Y CREDITO INTERCULTURAL TARPUK RUNA LTDA,Ecuador,AMBATO,OADIECE1,,,,
274,Coop. De A. Y C. Virgen Del Cisne,COOPERATIVA DE AHORRO Y CREDITO VIRGEN DEL CISNE,Ecuador,LATACUNGA,CRDVECE1,,,,
275,C. De A Y C Educad. De Zamora Chinchipe,COOPERATIVA DE AHORRO Y CREDITO EDUCADORES DE ZAMORA CHINCHIPE LTDA,Ecuador,ZAMORA,OADDECE1,,,,
276,C. De Ah. Y Credito Las Lagunas (Miess),COOPERATIVA DE AHORRO Y CREDITO LAS LAGUNAS,Ecuador,SARAGURO,OAIGECE1,,,,
277,C. De A Y C. Educadores De El Oro Ltd,COOPERATIVA DE AHORRO Y CREDITO EDUCADORES DE EL ORO LTDA,Ecuador,MACHALA,OADOECE1,,,,
278,C De A Y C Emplead Bancar Del Oro Ltda,COOPERATIVA DE AHORRO Y CREDITO DORADO LTDA,Ecuador,AMBATO,CRODECE1,,,,
279,Cooperativa De Ah. Y Credito Riochico,COOPERATIVA DE AHORRO Y CREDITO RIOCHICO,Ecuador,PORTOVIEJO,CHEHECE1,,,,
280,C. De A. Y C. San Martin De Tisaleo Ltda.,COOPERATIVA DE AHORRO Y CREDITO SAN MARTIN DE TISALEO LTDA,Ecuador,TISALEO,OAINECE1,,,,
281,Coop. De A. Y C. Alli Tarpuc Ltda.,Coop. De A. Y C. Alli Tarpuc Ltda.,Ecuador,,581,,
282,C. De A Y C. San Miguel De Pallatanga,COOPERATIVA DE AHORRO Y CREDITO SAN MIGUEL DE PALLATANGA,Ecuador,SAN MIGUEL,OHRNECE1,,,,
283,Coop De A Y C Fenix,Coop De A Y C Fenix,Ecuador,,590,,
284,Coop.De Ahorro Y Credito Camara De Comercio De Loj,COOPERATIVA DE AHORRO Y CREDITO CAMARA DE COMERCIO DE LOJA,Ecuador,LOJA,OHERECE1,,,,
285,Coop.De A. Y C. De Crecimiento Economico Rentable,Coop.De A. Y C. De Crecimiento Economico Rentable,Ecuador,,592,,
286,Cooperativa De Ahorro Y Credito Santiago Ltda,COOPERATIVA DE AHORRO Y CREDITO CREDIL LTDA,Ecuador,SALCEDO,CHDLECE1,,,,
287,Coop.De A. Y C. Popular Y Solidaria,Coop.De A. Y C. Popular Y Solidaria,Ecuador,,594,,
288,Coop.De Ahorro Y Credito San Placido Ltda.,COOPERATIVA DE AHORRO Y CREDITO LA INMACULADA DE SAN PLACIDO LTDA,Ecuador,PORTOVIEJO,OAIIECE1,,,,
289,Coop.De Ahorro Y Credito Ciudad De Zamora,COOPERATIVA DE AHORRO Y CREDITO CIUDAD DE ZAMORA,Ecuador,ZAMORA,OHRUECE1,,,,
290,Coop. De A Y C De La Pequena Empresa De Palora,Coop. De A Y C De La Pequena Empresa De Palora,Ecuador,,597,,
291,Coop. De A. Y C. Indigena Alfa Y Omega Ltda,COOPERATIVA DE AHORRO Y CREDITO INDIGENA ALFA Y OMEGA LTDA,Ecuador,QUITO,OATNECE1,,,,
292,Cooperativa De Ahorro Y Credito Crea Ltda ( Mies),COOPERATIVA DE AHORRO Y CREDITO CREA LTDA.,Ecuador,CUENCA,OAORECE1,,,,
293,Coop. De A. Y C. Chibuleo Ltda.,COOPERATIVA DE AHORRO Y CREDITO CHIBULEO LTDA,Ecuador,AMBATO,CROHECE1,,,,
294,Coop. De A. Y C. El Tesoro Pillareno,COOPERATIVA DE AHORRO Y CREDITO EL TESORO PILLARENO,Ecuador,PILLARO,OATTECE1,,,,
295,Coop. De A. Y C. Kisapincha Ltda.,COOPERATIVA DE AHORRO Y CREDITO KISAPINCHA LTDA,Ecuador,AMBATO,COEKECE1,,,,
296,Coop. De A. Y C. Juventud Unida Ltda.,COOPERATIVA DE AHORRO Y CREDITO JUVENTUD UNIDA LTDA,Ecuador,AMBATO,CHRJECE1,,,,
297,Coop. De A. Y C. Union Quisapincha Ltda.,COOPERATIVA DE AHORRO Y CREDITO UNION QUISAPINCHA LTDA,Ecuador,AMBATO,OAOUECE1,,,,
298,Coop. De A. Y C. 13 De Abril Ltda,COOPERATIVA DE AHORRO Y CREDITO 13 DE ABRIL,Ecuador,VENTANAS,OATBECE1,,,,
299,Coop. De A. Y C. Salinas Ltda.,Coop. De A. Y C. Salinas Ltda.,Ecuador,,610,,
300,Coop. De A. Y C. San Pedro Ltda.,COOPERATIVA DE AHORRO Y CREDITO SAN PEDRO LTDA,Ecuador,GUARANDA,OAOAECE1,,,,
301,Coop. De A. Y C. Los Chasquis Pastocalle Ltda.,COOPERATIVA DE AHORRO Y CREDITO LOS CHASQUIS PASTOCALLE LTDA,Ecuador,LATACUNGA,CHTQECE1,,,,
302,Coop. De A. Y C. Coopindigena Ltda.,Coop. De A. Y C. Coopindigena Ltda.,Ecuador,,613,,
303,Coop. De A. Y C. La Union Ltda.,Coop. De A. Y C. La Union Ltda.,Ecuador,,614,,
304,Coop. De A. Y C. Padre Vicente Ponce Rubio,COOPERATIVA DE AHORRO Y CREDITO PADRE VICENTE PONCE RUBIO,Ecuador,TULCAN,OAODECE1,,,,
305,Coop. De A. Y C. Mushug Causay Ltda.,Coop. De A. Y C. Mushug Causay Ltda.,Ecuador,,633,,
306,Coop. De A. Y C. 29 De Agosto,Coop. De A. Y C. 29 De Agosto,Ecuador,,634,,
307,Coop. De A. Y C. Credisocio,COOPERATIVA DE AHORRO Y CREDITO CREDISOCIO,Ecuador,SANTO DOMINGO,OHEDECE1,,,,
308,Coop. De A. Y C. Fondo Para El Desarrollo Y La Vid,COOPERATIVA DE AHORRO Y CREDITO FONDO PARA EL DESARROLLO Y LA VIDA,Ecuador,QUITO,OHDFECE1,,,,
309,Cooperativa De A Y C Nueva Vision,COOPERATIVA DE AHORRO Y CREDITO NUEVA VISION,Ecuador,QUITO,OAOVECE1,,,,
310,Coop. De Ahorro Y Credito Focash Ltda.,COOPERATIVA DE AHORRO Y CREDITO FOCAP,Ecuador,LAGO AGRIO,OHRFECE1,,,,
311,Coop. De A. Y C. San Vicente Del Sur Ltda.,Coop. De A. Y C. San Vicente Del Sur Ltda.,Ecuador,,676,,
312,Coop. De A. Y C. Para La Vivienda Orden Y Segurida,COOPERATIVA DE AHORRO Y CREDITO PARA LA VIVIENDA ORDEN Y SEGURIDAD,Ecuador,QUITO,OHRVECE1,,,,
313,Coop De A. Y C. Camara De Comercio Joya De Los Sac,COOPERATIVA DE AHORRO Y CREDITO CAMARA DE COMERCIO JOYA DE LOS SACHAS LTDA,Ecuador,JOYA DE LOS SACHAS,OHRMECE1,,,,
314,Coop. De A. Y C. Focap,COOPERATIVA DE AHORRO Y CREDITO FOCAP,Ecuador,LAGO AGRIO,OHRFECE1,,,,
315,Coop. De A. Y C. 18 De Noviembre,Coop. De A. Y C. 18 De Noviembre,Ecuador,,680,,
316,Cooperativa De Ahorro Y Credito Dr. Cornelio Saenz,COOPERATIVA DE AHORRO Y CREDITO DR CORNELIO SAENZ VERA LTDA,Ecuador,GUAYAQUIL,OHDCECE1,,,,
317,Coop De A. Y C. Educadores Del Azuay,COOPERATIVA DE AHORRO Y CREDITO EDUCADORES DEL AZUAY LTDA,Ecuador,CUENCA,OHEUECE1,,,,
318,Coop. De A. Y C. Indigena Sac Ltda,COOPERATIVA DE AHORRO Y CREDITO MULTICULTURAL INDIGENA LTDA,Ecuador,AMBATO,CHTMECE1,,,,
319,Coop. De A. Y C. Credi Ya Ltda,COOPERATIVA DE AHORRO Y CREDITO CREDI YA LTDA,Ecuador,AMBATO,OHECECE1,,,,
320,Coop. De A. Y C. San Bartolome Ltda,Coop. De A. Y C. San Bartolome Ltda,Ecuador,,685,,
321,Coop. De Ahorro Y Credito Mushuk Yuyay,COOPERATIVA DE AHORRO Y CREDITO MUSHUKWASI,Ecuador,SARAGURO,CAEWECE1,,,,
322,Coop De A. Y C. Sisay Kanari,Coop De A. Y C. Sisay Kanari,Ecuador,,687,,
323,Cooperativa De A Y C Accion Imbaburapak Ltda.,COOPERATIVA DE AHORRO Y CREDITO ACCION IMBABURAPAK LTDA.,Ecuador,OTAVALO,CPHCECE1,,,,
324,Coop De A. Y C. Hermes Gaibor Verdesoto,COOPERATIVA DE AHORRO Y CREDITO HERMES GAIBOR VERDESOTO,Ecuador,LATACUNGA,OADHECE1,,,,
325,Coop. De A. Y C. Semillas De Pangua,Coop. De A. Y C. Semillas De Pangua,Ecuador,,690,,
326,Cooperativa De A Y C Mushuk Solidaria,COOPERATIVA DE AHORRO Y CREDITO MUSHUKWASI,Ecuador,SARAGURO,CAEWECE1,,,,
327,Coop De A. Y C. Panamericana Ltda,Coop De A. Y C. Panamericana Ltda,Ecuador,,692,,
328,Coop. De A. Y C. Vilcabamba Cacvil,Coop. De A. Y C. Vilcabamba Cacvil,Ecuador,,693,,
329,Coop. De A. Y C. Familia Solidaria,COOPERATIVA DE AHORRO Y CREDITO FAMILIA SOLIDARIA,Ecuador,MACHALA,OHEFECE1,,,,
330,Cooperativa De Ahorro Y Credito El Paraiso Manga D,COOPERATIVA DE AHORRO Y CREDITO EL PARAISO MANGA DEL CURA,Ecuador,EL CARMEN,OHEPECE1,,,,
331,Coac De Los Profesores Empleados Y Trabajadores De,Coac De Los Profesores Empleados Y Trabajadores De,Ecuador,,696,,
332,Coac. Santa Rosa De San Carlos Ltda.,Coac. Santa Rosa De San Carlos Ltda.,Ecuador,,697,,
333,Coop. De A. Y C. Constructor Del Desarrollo Solida,Coop. De A. Y C. Constructor Del Desarrollo Solida,Ecuador,,698,,
334,Coop De A. Y C. Mushuk Yuyay Ltda,Coop De A. Y C. Mushuk Yuyay Ltda,Ecuador,,699,,
335,Corporacion Financiera,Corporacion Financiera,Ecuador,,700,,
336,Coop. De A. Y C. Alianza Social Ecu. Alsec,Coop. De A. Y C. Alianza Social Ecu. Alsec,Ecuador,,701,,
337,Coop. De A. Y C. Renovadora Ecu,Coop. De A. Y C. Renovadora Ecu,Ecuador,,702,,
338,Coop. De A. Y C. Mushuk Yuyay - Napo,Coop. De A. Y C. Mushuk Yuyay - Napo,Ecuador,,703,,
339,Coop. De A. Y C. Santa Ana De Nayon,COOPERATIVA DE AHORRO Y CREDITO SANTA ANA LTDA,Ecuador,SANTA ANA,OHCTECE1,,,,
340,Coop. De A. Y C. Educadores Del Napo,Coop. De A. Y C. Educadores Del Napo,Ecuador,,705,,
341,Cooperativa De A. Y C. Textil 14 De Marzo,Cooperativa De A. Y C. Textil 14 De Marzo,Ecuador,,706,,
342,Coop. De A Y C San Carlos Ltda.,Coop. De A Y C San Carlos Ltda.,Ecuador,,707,,
343,Coac A Y C Esperanza De Valle De La Virgen Ltda.,Coac A Y C Esperanza De Valle De La Virgen Ltda.,Ecuador,,708,,
344,Coac A Y C Zona De Capital Corcimol,Coac A Y C Zona De Capital Corcimol,Ecuador,,709,,
345,Coop.De A. Y C. Artesanal Del Azuay,Coop.De A. Y C. Artesanal Del Azuay,Ecuador,,710,,
346,Cooperativa De Ahorro Y Credito Sumak Sisa,COOPERATIVA DE AHORRO Y CREDITO SUMAK SAMY LTDA,Ecuador,AMBATO,CORKECE1,,,,
347,Coop. De A. Y C. Rey David Ltda,Coop. De A. Y C. Rey David Ltda,Ecuador,,712,,
348,Coop. De A. Y C. Kullki Wasi Ltda.,Coop. De A. Y C. Kullki Wasi Ltda.,Ecuador,,713,,
349,Coop De A. Y C. Sinchi Codefis,COOPERATIVA DE AHORRO Y CREDITO SINCHI RUNA LTDA,Ecuador,SAQUISILI,CRCHECE1,,,,
350,Coop. De A. Y C. Fuerza De Los Andes,Coop. De A. Y C. Fuerza De Los Andes,Ecuador,,715,,
351,Coop De A. Y C. Camino De Luz Ltda.,Coop De A. Y C. Camino De Luz Ltda.,Ecuador,,716,,
352,Coac A Y C Educadores De Bolivar,Coac A Y C Educadores De Bolivar,Ecuador,,717,,
353,Coac San Miguel Ltda.,Coac San Miguel Ltda.,Ecuador,,718,,
354,Coop. De A. Y C. Salinerita,Coop. De A. Y C. Salinerita,Ecuador,,719,,
355,Coop. De A. Y C. Bola Amarilla,Coop. De A. Y C. Bola Amarilla,Ecuador,,720,,
356,Coop A Y C Vision De Los Andes Visandes,Coop A Y C Vision De Los Andes Visandes,Ecuador,,721,,
357,Coop. De A. Y C. Senor Del Arbol,Coop. De A. Y C. Senor Del Arbol,Ecuador,,722,,
358,Coop. De A. Y C. Camara De Comercio De La Mana,COOPERATIVA DE AHORRO Y CREDITO CAMARA DE COMERCIO DE LOJA,Ecuador,LOJA,OHERECE1,,,,
359,Coop De A. Y C. Educadores De Loja,Coop De A. Y C. Educadores De Loja,Ecuador,,725,,
360,Coop De A. Y C. Indigena Sac Latacunga Ltda,Coop De A. Y C. Indigena Sac Latacunga Ltda,Ecuador,,726,,
361,Coop De A.Y C. Cadecog Gonzanama,COOPERATIVA DE AHORRO Y CREDITO GONZANAMA,Ecuador,GONZANAMA,CHRZECE1,,,,
362,Coac Coopymec Macara,Coac Coopymec Macara,Ecuador,,728,,
363,Coac Cadecom Macara,Coac Cadecom Macara,Ecuador,,729,,
364,Coop De A. Y C. 22 De Junio-Orianga,Coop De A. Y C. 22 De Junio-Orianga,Ecuador,,730,,
365,Coop. A.Yc.Sagrada Familia Solidaridad,Coop. A.Yc.Sagrada Familia Solidaridad,Ecuador,,732,,
366,Coop. De A. Y C. Naupa Kausay,Coop. De A. Y C. Naupa Kausay,Ecuador,,733,,
367,Ccop A Y C De Apecap Cac Apecap,Ccop A Y C De Apecap Cac Apecap,Ecuador,,734,,
368,Coop De A. Y C. San Juan De Cotogchoa,COOPERATIVA DE AHORRO Y CREDITO SAN JUAN DE COTOGCHOA,Ecuador,RUMINAHUI,CADJECE1,,,,
369,Coop De Ahorro Y Credito La Merced,COOPERATIVA DE AHORRO Y CREDITO MERCED LTDA,Ecuador,CUENCA,CSMDECE1,,,,
370,Coop. De A. Y C. Cooptopaxi Ltda.,Coop. De A. Y C. Cooptopaxi Ltda.,Ecuador,,338,,
371,Coop. De A. Y C. Grameen Amazonas,Coop. De A. Y C. Grameen Amazonas,Ecuador,,620,,
372,Coop. De A. Y C. El Transportista Cacet,Coop. De A. Y C. El Transportista Cacet,Ecuador,,621,,
373,Coop. De A Y C. Servidores Municipales De Cuenca,COOPERATIVA DE AHORRO Y CREDITO SERVIDORES MUNICIPALES DE CUENCA,Ecuador,CUENCA,OAOEECE1,,,,
374,Coop. De Ahorro Y Credito Profuturo Ltda.,COOPERATIVA DE AHORRO Y CREDITO COOPROGRESO LTDA.,Ecuador,QUITO,CHCRECE1,,,,
375,Coop. De A. Y C. Iliniza Ltda.,COOPERATIVA DE AHORRO Y CREDITO ILINIZA LTDA,Ecuador,LATACUNGA,CAIZECE1,,,,
376,Coop. De Ahorro Y Credito Saraguros,COOPERATIVA DE AHORRO Y CREDITO SARAGUROS,Ecuador,SARAGURO,CHOGECE1,,,,
377,Cooperativa De Ahorro Y Credito Inti Wasi Ltda.,COOPERATIVA DE AHORRO Y CREDITO INTI WASI LTDA INTICOOP,Ecuador,SARAGURO,CHTTECE1,,,,
378,Cooperativa De Ahorro Y Credito San Isidro Ltda.,COOPERATIVA DE AHORRO Y CREDITO SAN ISIDRO LTDA,Ecuador,SUCRE,OARNECE1,,,,
379,Coop. De A. Y C. Empresas Comunitarias Coocredito,COOPERATIVA DE AHORRO Y CREDITO EMPRENDEDORES COOPEMPRENDER LIMITADA,Ecuador,QUITO,OAEEECE1,,,,
380,Silvercross S.A Casa De Valores Sccv,Silvercross S.A Casa De Valores Sccv,Ecuador,,723,,
381,Real Casa De Valores De Guayaquil S.A.,BOLSA DE VALORES DE GUAYAQUIL S.A.,Ecuador,GUAYAQUIL,XGUAECE1,,,,
382,Cooperativa De Ahorro Y Credito Etapa,COOPERATIVA DE AHORRO Y CREDITO FOCLA,Ecuador,LAGO AGRIO,CHDFECE1,,,,
383,Coop. Ahorro Y Credito Mascoop,COOPERATIVA DE AHORRO Y CREDITO SOCIO AMIGO COOPSA,Ecuador,MARCABELI,OAEOECE1,,,,
384,Coop. De A. Y C. Saint Michel Ltda.,Coop. De A. Y C. Saint Michel Ltda.,Ecuador,,727,,
385,Coop. Ahorro Y Credito Manantial De Oro Ltda.,COOPERATIVA DE AHORRO Y CREDITO MANANTIAL DE ORO LTDA,Ecuador,MACHACHI,CMCNECE1,,,,
386,Coop. De Ahorro Y Credito Andina Ltda.,COOPERATIVA DE AHORRO Y CREDITO ANDINA LTDA,Ecuador,LATACUNGA,CEADECE1,,,,
387,Coop. De Ahorro Y Credito Accion Y Desarrollo Ltda,COOPERATIVA DE AHORRO Y CREDITO ACCION Y DESARROLLO LTDA,Ecuador,GUAMOTE,CCDRECE1,,,,
388,Coop. De A. Y C. Union Y Desarrollo,COOPERATIVA DE AHORRO Y CREDITO FUTURO Y DESARROLLO FUNDESARROLLO,Ecuador,QUITO,CHTFECE1,,,,
389,Coop. De A. Y C. Esperanza Del Futuro Ltda.,Coop. De A. Y C. Esperanza Del Futuro Ltda.,Ecuador,,9902,,
390,Coop. De A. Y C. 17 De Marzo Ltda,Coop. De A. Y C. 17 De Marzo Ltda,Ecuador,,9903,,
391,Coop. De A. Y C. Catar Ltda,Coop. De A. Y C. Catar Ltda,Ecuador,,9904,,
392,Coop. De A. Y C. De Accion Popular,Coop. De A. Y C. De Accion Popular,Ecuador,,9905,,
393,Coop. De A. Y C. Alli Tarpuk Ltda,Coop. De A. Y C. Alli Tarpuk Ltda,Ecuador,,9906,,
394,Coop. De A. Y C. 16 De Julio Ltda,Coop. De A. Y C. 16 De Julio Ltda,Ecuador,,9907,,
395,Coop. De A. Y C. Suboficiales De La Policia Nacion,COOPERATIVA DE AHORRO Y CREDITO POLICIA NACIONAL LTDA,Ecuador,QUITO,CPCCECE1,,,,
396,Coop. De A. Y C. Politecnica Ltda.,Coop. De A. Y C. Politecnica Ltda.,Ecuador,,9909,,
397,Coop. De A. Y C. Nacional Llano Grande Ltda.,Coop. De A. Y C. Nacional Llano Grande Ltda.,Ecuador,,9910,,
398,Coop. De A. Y C. San Valentin,Coop. De A. Y C. San Valentin,Ecuador,,9911,,
399,Coop. De A. Y C. Totalife Ltda,Coop. De A. Y C. Totalife Ltda,Ecuador,,9912,,
400,Acciones Valores Casa De Valores S.A. Accival,Acciones Valores Casa De Valores S.A. Accival,Ecuador,,9913,,
401,Santa Fe Casa De Valores S.A. Santafevalores,Santa Fe Casa De Valores S.A. Santafevalores,Ecuador,,9914,,
402,Picaval Casa De Valores S.A,PICAVAL CASA DE VALORES SA,Ecuador,QUITO,PICVECE1,,,,
403,Analytica Securties C.A. Casa De Valores,Analytica Securties C.A. Casa De Valores,Ecuador,,9916,,
404,Orion Casa De Valores S.A,PICAVAL CASA DE VALORES SA,Ecuador,QUITO,PICVECE1,,,,
405,Stratega Casa De Valores S.A.,CASA DE VALORES MULTIVALORES B.G. S.A.,Ecuador,QUITO,CVMUECE1,,,,
406,Ecofsa Casa De Valores S.A.,Ecofsa Casa De Valores S.A.,Ecuador,,9919,,
407,Merchantvalores Casa De Valores S.A.,CASA DE VALORES MULTIVALORES B.G. S.A.,Ecuador,QUITO,CVMUECE1,,,,
408,Casa De Valores Value S.A.,CASA DE VALORES MULTIVALORES B.G. S.A.,Ecuador,QUITO,CVMUECE1,,,,
409,Inmovalor Casa De Valores S.A.,CASA DE VALORES MULTIVALORES B.G. S.A.,Ecuador,QUITO,CVMUECE1,,,,
410,Ecuabursatil Casa De Valores S.A.,CASA DE VALORES MULTIVALORES B.G. S.A.,Ecuador,QUITO,CVMUECE1,,,,
411,Plus Valores Casa De Valores S.A.,CASA DE VALORES MULTIVALORES B.G. S.A.,Ecuador,QUITO,CVMUECE1,,,,
412,Mercapital Casa De Valores S.A.,CASA DE VALORES MULTIVALORES B.G. S.A.,Ecuador,QUITO,CVMUECE1,,,,
413,Portafolio Casa De Valores S.A. Portavalor,Portafolio Casa De Valores S.A. Portavalor,Ecuador,,9926,,
414,Metrovalores Casa De Valores S.A.,CASA DE VALORES MULTIVALORES B.G. S.A.,Ecuador,QUITO,CVMUECE1,,,,
415,Vectorglobal Wmg Casa De Valores S.A.,CASA DE VALORES MULTIVALORES B.G. S.A.,Ecuador,QUITO,CVMUECE1,,,,
416,Holdunpartners Casa De Valores S.A.,CASA DE VALORES MULTIVALORES B.G. S.A.,Ecuador,QUITO,CVMUECE1,,,,
417,Coop. De Ahorro Y Credito Base De Taura,COOPERATIVA DE AHORRO Y CREDITO TENA LTDA,Ecuador,TENA,CTENECE1,,,,
418,Casa De Valores Banrio S.A.,CASA DE VALORES MULTIVALORES B.G. S.A.,Ecuador,QUITO,CVMUECE1,,,,
419,Albion Casa De Valores S.A.,CASA DE VALORES MULTIVALORES B.G. S.A.,Ecuador,QUITO,CVMUECE1,,,,
420,Masvalores Casa De Valores S.A Cavamasa,CASA DE VALORES MULTIVALORES B.G. S.A.,Ecuador,QUITO,CVMUECE1,,,,
421,Casa De Valores Del Pacifico (Valpacifico) S.A.,Casa De Valores Del Pacifico (Valpacifico) S.A.,Ecuador,,9934,,
422,Casa De Valores Advfin S.A.,CASA DE VALORES MULTIVALORES B.G. S.A.,Ecuador,QUITO,CVMUECE1,,,,
423,Kapital One Casa De Valores S.A. Kaovalsa,Kapital One Casa De Valores S.A. Kaovalsa,Ecuador,,9936,,
424,Plusbursatil Casa De Valores S.A,CASA DE VALORES MULTIVALORES B.G. S.A.,Ecuador,QUITO,CVMUECE1,,,,
425,Activa Ases.E Intermed.Valores Activalores Casa De,Activa Ases.E Intermed.Valores Activalores Casa De,Ecuador,,9938,,
426,Citadel Casa De Valores S.A.,CASA DE VALORES MULTIVALORES B.G. S.A.,Ecuador,QUITO,CVMUECE1,,,,
427,Decevale S.A.,Decevale S.A.,Ecuador,,9940,,
428,Coop. De A. Y C. Santa Lucia Ltda,Coop. De A. Y C. Santa Lucia Ltda,Ecuador,,9941,,
429,Coop. De A. Y C. Produactiva Ltda,Coop. De A. Y C. Produactiva Ltda,Ecuador,,9942,,
430,Coop. De A. Y C. Tamboloma Ltda.,Coop. De A. Y C. Tamboloma Ltda.,Ecuador,,9943,,
431,Coop De A. Y C. Pushak Runa Hombre Lider,Coop De A. Y C. Pushak Runa Hombre Lider,Ecuador,,9944,,
432,Coop. De A. Y C. 15 De Agosto Ltda.,Coop. De A. Y C. 15 De Agosto Ltda.,Ecuador,,9945,,
433,Coop. De A. Y C. Migrantes Del Ecuador Ltda,Coop. De A. Y C. Migrantes Del Ecuador Ltda,Ecuador,,9946,,
434,Cooperativa De Ahorro Y Credito Wuamanloma Ltda.,COOPERATIVA DE AHORRO Y CREDITO WUAMANLOMA LTDA,Ecuador,PELILEO,CACWECE1,,,,
435,Coop. De A. Y C. Salate Ltda.,COOPERATIVA DE AHORRO Y CREDITO SALATE LTDA,Ecuador,PELILEO,CSLSECE1,,,,
436,Coop. De A. Y C. Union Popular Ltda.,Coop. De A. Y C. Union Popular Ltda.,Ecuador,,9949,,
437,Coac Achik Inti Ltda,Coac Achik Inti Ltda,Ecuador,,9950,,
438,Coac El Migrante Solidario,Coac El Migrante Solidario,Ecuador,,9951,,
439,Coop Ac Las Naves,Coop Ac Las Naves,Ecuador,,9952,,
440,Coop. De A. Y C. De Imbabura Amazonas,Coop. De A. Y C. De Imbabura Amazonas,Ecuador,,9953,,
441,Coop. A. Y C. De Indigenas Chuchuqui Ltda,Coop. A. Y C. De Indigenas Chuchuqui Ltda,Ecuador,,9954,,
442,Coop. Ahorro Y Credito Focazsum Ltda.,COOPERATIVA DE AHORRO Y CREDITO CREA LTDA.,Ecuador,CUENCA,OAORECE1,,,,
443,Coop. De A. Y C. Solidaria Ltda.- Cotopaxi,COOPERATIVA DE AHORRO Y CREDITO SOLIDARIA LTDA,Ecuador,LOJA,OARSECE1,,,,
444,Coop. De A. Y C. Unidad Y Progreso,Coop. De A. Y C. Unidad Y Progreso,Ecuador,,9957,,
445,Coac Loja Internacional Ltda.,Coac Loja Internacional Ltda.,Ecuador,,9958,,
446,Coac 23 De Enero,COOPERATIVA DE AHORRO Y CREDITO 23 DE ENERO,Ecuador,PUYANGO,OHREECE1,,,,
447,Coac Obras Publicas Fiscales De Loja Y Zamora,Coac Obras Publicas Fiscales De Loja Y Zamora,Ecuador,,9960,,
448,Coac Del Sind Chof Prof Virgen Del Cisne,Coac Del Sind Chof Prof Virgen Del Cisne,Ecuador,,9961,,
449,Coac San Miguel De Chirijos Ltda,Coac San Miguel De Chirijos Ltda,Ecuador,,9962,,
450,Coop. Ahorro Y Credito Quevedo Ltda.,COOPERATIVA DE AHORRO Y CREDITO CREDIL LTDA,Ecuador,SALCEDO,CHDLECE1,,,,
451,Coop. De A. Y C. El Altar Ltda.,Coop. De A. Y C. El Altar Ltda.,Ecuador,,9964,,
452,Coop. De A. Y C. Nueva Alianza De Chimborazo Ltda,Coop. De A. Y C. Nueva Alianza De Chimborazo Ltda,Ecuador,,9965,,
453,Coop. De A. Y C. Luis Felipe Duchicela Xxvii,Coop. De A. Y C. Luis Felipe Duchicela Xxvii,Ecuador,,9966,,
454,Coop. De A. Y C. Nizag Ltda.,Coop. De A. Y C. Nizag Ltda.,Ecuador,,9967,,
455,Coop. De A. Y C. Makita Kunchik,Coop. De A. Y C. Makita Kunchik,Ecuador,,9968,,
456,Coop. De A. Y C. Cerrada Manuela Leon,Coop. De A. Y C. Cerrada Manuela Leon,Ecuador,,9969,,
457,Coop. De A. Y C. El Buen Sembrador Ltda.,Coop. De A. Y C. El Buen Sembrador Ltda.,Ecuador,,9970,,
458,Coac Sindicato De Choferes Profesionales De Yantza,Coac Sindicato De Choferes Profesionales De Yantza,Ecuador,,9971,,
459,Coop. De A. Y C. 5 De Mayo De Santa Martha De Cuba,Coop. De A. Y C. 5 De Mayo De Santa Martha De Cuba,Ecuador,,9972,,
